{"type": "FeatureCollection", "_fetch": {"collection": "srup_zpe", "source": "DGT OGC API Features, https://ogcapi.dgterritorio.gov.pt", "request": "https://ogcapi.dgterritorio.gov.pt/collections/srup_zpe/items?bbox=-8.79%2C41.00%2C-7.87%2C41.48&f=json&limit=500&crs=http%3A%2F%2Fwww.opengis.net%2Fdef%2Fcrs%2FOGC%2F1.3%2FCRS84", "crs": "http://www.opengis.net/def/crs/OGC/1.3/CRS84", "filter": {"bbox": "-8.79,41.00,-7.87,41.48"}, "downloaded": "2026-09-07", "server_numberMatched": 0, "features_written": 0, "licence": "CC BY 4.0 — Direção-Geral do Território"}, "features": []}