{"type":"FeatureCollection","features":[{"type":"Feature","properties":{"num":5,"name":"Ramalde"},"geometry":{"type":"Polygon","coordinates":[[[-8.63266,41.17926],[-8.62268,41.18025],[-8.62547,41.17659],[-8.62784,41.17587],[-8.62753,41.17478],[-8.6264,41.17272],[-8.62519,41.16703],[-8.62882,41.16591],[-8.63336,41.16381],[-8.63125,41.16263],[-8.63247,41.16205],[-8.63316,41.1614],[-8.63281,41.16057],[-8.63422,41.16049],[-8.63594,41.15976],[-8.63625,41.1604],[-8.63902,41.16274],[-8.64197,41.16005],[-8.663,41.16357],[-8.65689,41.17094],[-8.66056,41.17396],[-8.66204,41.17394],[-8.66245,41.17413],[-8.66157,41.17506],[-8.65939,41.17622],[-8.65687,41.17619],[-8.65778,41.17744],[-8.65306,41.17881],[-8.648,41.18174],[-8.64263,41.18432],[-8.64132,41.18405],[-8.63266,41.17926]]]}},{"type":"Feature","properties":{"num":6,"name":"Aldoar, Foz do Douro e Nevogilde"},"geometry":{"type":"Polygon","coordinates":[[[-8.67075,41.14347],[-8.67454,41.147],[-8.67603,41.14662],[-8.67623,41.1468],[-8.67955,41.14461],[-8.67983,41.14482],[-8.67644,41.14684],[-8.67464,41.14729],[-8.67489,41.1477],[-8.67741,41.14668],[-8.67493,41.14781],[-8.67643,41.15006],[-8.67781,41.15121],[-8.67851,41.15258],[-8.67987,41.15388],[-8.68075,41.15528],[-8.68126,41.15544],[-8.68111,41.15557],[-8.68143,41.15566],[-8.6821,41.15666],[-8.68332,41.15761],[-8.68421,41.15741],[-8.68357,41.15776],[-8.68448,41.1586],[-8.68558,41.15767],[-8.68503,41.15829],[-8.68524,41.1584],[-8.6852,41.15895],[-8.68595,41.15925],[-8.68627,41.16008],[-8.68649,41.16015],[-8.68613,41.16061],[-8.68625,41.16285],[-8.68644,41.16306],[-8.68677,41.16297],[-8.68661,41.16316],[-8.68694,41.16338],[-8.68727,41.16335],[-8.68718,41.16362],[-8.6877,41.1638],[-8.68759,41.16404],[-8.68778,41.16394],[-8.68789,41.16442],[-8.68822,41.16431],[-8.68802,41.1645],[-8.6883,41.16456],[-8.68829,41.16522],[-8.68916,41.16589],[-8.6891,41.1661],[-8.6898,41.16609],[-8.6896,41.16648],[-8.68994,41.16639],[-8.68987,41.16668],[-8.69033,41.16657],[-8.69034,41.16683],[-8.69052,41.16675],[-8.69022,41.16699],[-8.69043,41.16708],[-8.69017,41.16764],[-8.6907,41.168],[-8.69026,41.16823],[-8.69108,41.1683],[-8.69096,41.16863],[-8.69129,41.16875],[-8.69061,41.16929],[-8.69042,41.16903],[-8.68978,41.16915],[-8.68989,41.16954],[-8.68945,41.16937],[-8.68879,41.1699],[-8.68894,41.17138],[-8.69003,41.17336],[-8.68385,41.17359],[-8.67952,41.17159],[-8.67836,41.17154],[-8.67535,41.17208],[-8.67166,41.17461],[-8.67065,41.17592],[-8.6682,41.17688],[-8.66726,41.17858],[-8.66638,41.1792],[-8.66566,41.17931],[-8.66408,41.17901],[-8.66185,41.17696],[-8.65778,41.17744],[-8.65687,41.17619],[-8.65939,41.17622],[-8.66157,41.17506],[-8.66245,41.17413],[-8.66204,41.17394],[-8.66056,41.17396],[-8.65689,41.17094],[-8.66272,41.16396],[-8.66349,41.16247],[-8.66531,41.16153],[-8.6644,41.16021],[-8.66608,41.15955],[-8.66138,41.15283],[-8.66227,41.15259],[-8.66258,41.1516],[-8.6624,41.15011],[-8.66141,41.14996],[-8.66137,41.14961],[-8.66107,41.1495],[-8.66128,41.14904],[-8.66131,41.14767],[-8.66186,41.14686],[-8.66029,41.14292],[-8.66295,41.1429],[-8.66748,41.14349],[-8.67075,41.14347]]]}},{"type":"Feature","properties":{"num":7,"name":"Lordelo do Ouro e Massarelos"},"geometry":{"type":"Polygon","coordinates":[[[-8.652,41.14482],[-8.65714,41.14343],[-8.66029,41.14292],[-8.66186,41.14686],[-8.66131,41.14767],[-8.66128,41.14904],[-8.66107,41.1495],[-8.66137,41.14961],[-8.66141,41.14996],[-8.6624,41.15011],[-8.66258,41.1516],[-8.66227,41.15259],[-8.66138,41.15283],[-8.66608,41.15955],[-8.6644,41.16021],[-8.66531,41.16153],[-8.66349,41.16247],[-8.663,41.16357],[-8.64197,41.16005],[-8.63902,41.16274],[-8.63625,41.1604],[-8.63565,41.159],[-8.63036,41.15812],[-8.63027,41.15748],[-8.62991,41.15713],[-8.62925,41.15693],[-8.62859,41.15706],[-8.62674,41.15442],[-8.62448,41.15318],[-8.62455,41.15277],[-8.62406,41.1529],[-8.62076,41.15259],[-8.62136,41.15162],[-8.62314,41.15068],[-8.62268,41.14777],[-8.62418,41.14818],[-8.62479,41.14685],[-8.62457,41.14571],[-8.62395,41.1457],[-8.62437,41.14544],[-8.62351,41.14485],[-8.6239,41.14469],[-8.62349,41.14435],[-8.62377,41.14399],[-8.61871,41.14095],[-8.61953,41.1398],[-8.6197,41.13984],[-8.62345,41.14271],[-8.62565,41.14361],[-8.62981,41.14414],[-8.63146,41.14467],[-8.63673,41.14716],[-8.63907,41.14747],[-8.64799,41.14625],[-8.652,41.14482]]]}},{"type":"Feature","properties":{"num":1,"name":"Cedofeita, Santo Ildefonso, Sé, Miragaia, São Nicolau e Vitória"},"geometry":{"type":"Polygon","coordinates":[[[-8.63565,41.159],[-8.63594,41.15976],[-8.63422,41.16049],[-8.63281,41.16057],[-8.63316,41.1614],[-8.63247,41.16205],[-8.63125,41.16263],[-8.63336,41.16381],[-8.62882,41.16591],[-8.62349,41.16746],[-8.6214,41.16745],[-8.62054,41.16586],[-8.61933,41.16577],[-8.6199,41.16486],[-8.61821,41.16517],[-8.61246,41.16473],[-8.61156,41.16507],[-8.61099,41.16455],[-8.60953,41.16449],[-8.60956,41.16378],[-8.60894,41.16318],[-8.60923,41.16246],[-8.60395,41.16174],[-8.60447,41.16018],[-8.60469,41.1548],[-8.60305,41.15456],[-8.60429,41.15137],[-8.60426,41.15094],[-8.60224,41.15099],[-8.60186,41.14567],[-8.60151,41.14542],[-8.60124,41.14367],[-8.60185,41.14336],[-8.60191,41.14267],[-8.60405,41.14182],[-8.60394,41.14094],[-8.60592,41.14073],[-8.61206,41.13928],[-8.6156,41.1389],[-8.61953,41.1398],[-8.61871,41.14095],[-8.62377,41.14399],[-8.62349,41.14435],[-8.6239,41.14469],[-8.62351,41.14485],[-8.62437,41.14544],[-8.62395,41.1457],[-8.62457,41.14571],[-8.62479,41.14685],[-8.62418,41.14818],[-8.62268,41.14777],[-8.62314,41.15068],[-8.62136,41.15162],[-8.62076,41.15259],[-8.62406,41.1529],[-8.62455,41.15277],[-8.62448,41.15318],[-8.62674,41.15442],[-8.62859,41.15706],[-8.62945,41.15694],[-8.63014,41.15731],[-8.63036,41.15812],[-8.63565,41.159]]]}},{"type":"Feature","properties":{"num":2,"name":"Bonfim"},"geometry":{"type":"Polygon","coordinates":[[[-8.59418,41.13835],[-8.59922,41.14092],[-8.60009,41.14111],[-8.60156,41.1412],[-8.60394,41.14094],[-8.60405,41.14182],[-8.60191,41.14267],[-8.60185,41.14336],[-8.60124,41.14367],[-8.60151,41.14542],[-8.60186,41.14567],[-8.60224,41.15099],[-8.60426,41.15094],[-8.60429,41.15137],[-8.60305,41.15456],[-8.60469,41.1548],[-8.60447,41.16018],[-8.60389,41.16155],[-8.60412,41.16182],[-8.59977,41.16509],[-8.59829,41.16371],[-8.59378,41.16316],[-8.5934,41.16478],[-8.59277,41.16469],[-8.59254,41.16587],[-8.59178,41.16675],[-8.5907,41.16716],[-8.5882,41.16705],[-8.58936,41.16429],[-8.59175,41.16144],[-8.5938,41.15781],[-8.59119,41.15707],[-8.59116,41.15355],[-8.59177,41.15277],[-8.59101,41.15254],[-8.59048,41.15173],[-8.59028,41.14992],[-8.58807,41.14933],[-8.58907,41.14714],[-8.58794,41.14655],[-8.58754,41.14608],[-8.58763,41.14575],[-8.58735,41.1456],[-8.58762,41.14511],[-8.58705,41.14277],[-8.58768,41.14204],[-8.58641,41.14108],[-8.58738,41.1404],[-8.59011,41.13921],[-8.59153,41.13873],[-8.59418,41.13835]]]}},{"type":"Feature","properties":{"num":3,"name":"Campanhã"},"geometry":{"type":"Polygon","coordinates":[[[-8.58936,41.16429],[-8.58456,41.17435],[-8.58373,41.17411],[-8.57855,41.17802],[-8.57578,41.17794],[-8.57423,41.17752],[-8.57265,41.17798],[-8.57205,41.17837],[-8.57153,41.17999],[-8.57096,41.17975],[-8.56604,41.17576],[-8.56786,41.17392],[-8.56711,41.17157],[-8.56743,41.17121],[-8.5703,41.17002],[-8.5707,41.16791],[-8.57008,41.16752],[-8.56841,41.16748],[-8.56687,41.16686],[-8.56599,41.16538],[-8.5656,41.16329],[-8.56533,41.16293],[-8.56214,41.16089],[-8.56098,41.15923],[-8.56092,41.1586],[-8.56154,41.15804],[-8.55873,41.15614],[-8.552,41.15445],[-8.55339,41.15285],[-8.55597,41.15288],[-8.55671,41.15254],[-8.55871,41.15049],[-8.5596,41.15031],[-8.56067,41.14958],[-8.56154,41.14982],[-8.5623,41.14963],[-8.56244,41.14811],[-8.56411,41.14599],[-8.56485,41.14646],[-8.56661,41.14623],[-8.56671,41.14651],[-8.56731,41.14679],[-8.56933,41.14661],[-8.57006,41.14529],[-8.56936,41.14457],[-8.56928,41.14419],[-8.56954,41.14381],[-8.57178,41.14248],[-8.57252,41.14297],[-8.57249,41.14254],[-8.57314,41.14162],[-8.57388,41.1423],[-8.57576,41.13996],[-8.57695,41.14131],[-8.5779,41.14189],[-8.58018,41.14236],[-8.58498,41.14215],[-8.58641,41.14108],[-8.58768,41.14204],[-8.58705,41.14277],[-8.58762,41.14511],[-8.58735,41.1456],[-8.58763,41.14575],[-8.58754,41.14608],[-8.58794,41.14655],[-8.58907,41.14714],[-8.58807,41.14933],[-8.59028,41.14992],[-8.59048,41.15173],[-8.59101,41.15254],[-8.59177,41.15277],[-8.59116,41.15355],[-8.59119,41.15707],[-8.5938,41.15781],[-8.59175,41.16144],[-8.58936,41.16429]]]}},{"type":"Feature","properties":{"num":4,"name":"Paranhos"},"geometry":{"type":"Polygon","coordinates":[[[-8.58411,41.18136],[-8.58164,41.18043],[-8.57618,41.18095],[-8.57422,41.18006],[-8.57153,41.17999],[-8.57205,41.17837],[-8.57265,41.17798],[-8.57423,41.17752],[-8.57578,41.17794],[-8.57855,41.17802],[-8.58373,41.17411],[-8.58456,41.17435],[-8.5882,41.16705],[-8.5907,41.16716],[-8.59178,41.16675],[-8.59254,41.16587],[-8.59277,41.16469],[-8.5934,41.16478],[-8.59378,41.16316],[-8.59829,41.16371],[-8.59977,41.16509],[-8.60412,41.16182],[-8.60923,41.16246],[-8.60894,41.16318],[-8.60956,41.16378],[-8.60953,41.16449],[-8.61099,41.16455],[-8.61156,41.16507],[-8.61246,41.16473],[-8.61821,41.16517],[-8.6199,41.16486],[-8.61933,41.16577],[-8.62054,41.16586],[-8.6214,41.16745],[-8.62316,41.16752],[-8.62519,41.16703],[-8.6264,41.17272],[-8.62753,41.17478],[-8.62784,41.17587],[-8.62547,41.17659],[-8.62268,41.18025],[-8.62137,41.18053],[-8.61838,41.18226],[-8.61877,41.18257],[-8.61652,41.18351],[-8.61704,41.18385],[-8.61605,41.18426],[-8.61468,41.18439],[-8.61399,41.18477],[-8.61203,41.18487],[-8.61154,41.18513],[-8.61156,41.18535],[-8.60973,41.18533],[-8.60933,41.18474],[-8.60871,41.18508],[-8.60872,41.18542],[-8.60545,41.18586],[-8.60353,41.18586],[-8.60208,41.18508],[-8.60181,41.18531],[-8.59898,41.18368],[-8.59692,41.18375],[-8.59606,41.18194],[-8.59118,41.18009],[-8.58952,41.17976],[-8.5869,41.17975],[-8.58411,41.18136]]]}}]}