{"type":"FeatureCollection","features":[{"type":"Feature","properties":{"num":1,"name":"Porto"},"geometry":{"type":"Polygon","coordinates":[[[-8.66184,41.17696],[-8.65306,41.17881],[-8.64263,41.18432],[-8.63266,41.17926],[-8.62182,41.18035],[-8.61605,41.18426],[-8.60416,41.18594],[-8.59898,41.18368],[-8.59688,41.18375],[-8.59606,41.18194],[-8.59028,41.17988],[-8.58718,41.17968],[-8.58411,41.18136],[-8.58164,41.18043],[-8.57618,41.18095],[-8.56919,41.17823],[-8.56606,41.17589],[-8.56786,41.17392],[-8.56718,41.17145],[-8.5703,41.17002],[-8.57075,41.16814],[-8.56687,41.16686],[-8.56575,41.16419],[-8.56601,41.16138],[-8.55873,41.15614],[-8.55771,41.15807],[-8.55474,41.15962],[-8.55338,41.16006],[-8.55261,41.15821],[-8.55485,41.15732],[-8.55495,41.15295],[-8.56067,41.14958],[-8.5623,41.14963],[-8.56369,41.14637],[-8.56569,41.14708],[-8.56542,41.14647],[-8.56661,41.14623],[-8.56896,41.14736],[-8.57008,41.14484],[-8.57352,41.14406],[-8.57212,41.14267],[-8.57325,41.14173],[-8.5739,41.14234],[-8.57576,41.13996],[-8.5779,41.14189],[-8.58209,41.14242],[-8.58498,41.14215],[-8.589,41.13964],[-8.59418,41.13835],[-8.60156,41.1412],[-8.6156,41.1389],[-8.6197,41.13984],[-8.62566,41.14361],[-8.62981,41.14414],[-8.63907,41.14747],[-8.64799,41.14625],[-8.66103,41.14281],[-8.67075,41.14347],[-8.67463,41.14706],[-8.67927,41.14513],[-8.67464,41.14734],[-8.67734,41.14667],[-8.67498,41.1478],[-8.67643,41.15006],[-8.68212,41.15667],[-8.68421,41.15741],[-8.68357,41.15776],[-8.68448,41.15858],[-8.68558,41.15767],[-8.68503,41.15829],[-8.68649,41.16015],[-8.68625,41.16285],[-8.69052,41.16675],[-8.69026,41.16823],[-8.69129,41.16875],[-8.68878,41.16993],[-8.69012,41.1734],[-8.68423,41.17365],[-8.67886,41.17149],[-8.67535,41.17209],[-8.66823,41.17691],[-8.66668,41.1791],[-8.66408,41.17901],[-8.66184,41.17696]]]}},{"type":"Feature","properties":{"num":2,"name":"Vila Nova de Gaia"},"geometry":{"type":"Polygon","coordinates":[[[-8.60606,41.02569],[-8.61827,41.02018],[-8.62283,41.01982],[-8.62299,41.01867],[-8.62591,41.01925],[-8.63102,41.01839],[-8.63234,41.01674],[-8.63475,41.0166],[-8.63542,41.01525],[-8.64497,41.01597],[-8.64428,41.01924],[-8.64578,41.02472],[-8.64461,41.02535],[-8.64585,41.0251],[-8.64684,41.02717],[-8.64675,41.03255],[-8.64915,41.03589],[-8.65447,41.04823],[-8.65642,41.04905],[-8.65668,41.04729],[-8.65709,41.04925],[-8.6562,41.05292],[-8.65736,41.05808],[-8.65677,41.06118],[-8.6582,41.06273],[-8.65756,41.06263],[-8.65816,41.06419],[-8.65733,41.0656],[-8.65817,41.0675],[-8.65739,41.06784],[-8.65945,41.06907],[-8.65839,41.07068],[-8.65891,41.07343],[-8.65754,41.09071],[-8.65926,41.0951],[-8.66025,41.09555],[-8.65985,41.09817],[-8.66272,41.10072],[-8.66251,41.10421],[-8.66552,41.1059],[-8.66384,41.10636],[-8.66564,41.10814],[-8.66346,41.1169],[-8.66608,41.12058],[-8.66859,41.12142],[-8.66832,41.1234],[-8.66933,41.12399],[-8.66826,41.1243],[-8.66793,41.1272],[-8.66902,41.12951],[-8.67005,41.12958],[-8.66927,41.1301],[-8.67093,41.13137],[-8.67125,41.13458],[-8.6677,41.13755],[-8.66731,41.14047],[-8.66895,41.14272],[-8.67188,41.14297],[-8.67261,41.14219],[-8.67163,41.14148],[-8.67446,41.14313],[-8.67552,41.14453],[-8.67281,41.14232],[-8.67214,41.14307],[-8.67075,41.14347],[-8.66103,41.14281],[-8.64799,41.14625],[-8.63907,41.14747],[-8.62981,41.14414],[-8.62566,41.14361],[-8.6197,41.13984],[-8.6156,41.1389],[-8.60156,41.1412],[-8.59418,41.13835],[-8.589,41.13964],[-8.58498,41.14215],[-8.5779,41.14189],[-8.57376,41.13714],[-8.56883,41.12619],[-8.56539,41.12452],[-8.55619,41.124],[-8.54901,41.12214],[-8.54198,41.11463],[-8.53643,41.10633],[-8.52764,41.10015],[-8.52201,41.08765],[-8.52149,41.08409],[-8.51887,41.078],[-8.51385,41.07263],[-8.50661,41.07043],[-8.49928,41.0705],[-8.49009,41.07197],[-8.47884,41.07543],[-8.47045,41.07531],[-8.46678,41.07322],[-8.45805,41.06116],[-8.44874,41.05346],[-8.45156,41.04999],[-8.45144,41.0474],[-8.45271,41.04583],[-8.45542,41.04497],[-8.45678,41.04238],[-8.45996,41.04515],[-8.46606,41.04828],[-8.47718,41.0517],[-8.47688,41.05289],[-8.48154,41.0518],[-8.48315,41.05283],[-8.48622,41.0527],[-8.48955,41.04917],[-8.49164,41.0445],[-8.4906,41.04303],[-8.49258,41.0396],[-8.48279,41.03641],[-8.48168,41.03489],[-8.4757,41.03404],[-8.47588,41.03151],[-8.47273,41.03188],[-8.47177,41.03116],[-8.47088,41.0324],[-8.4696,41.03229],[-8.46662,41.03025],[-8.47502,41.02849],[-8.47748,41.0248],[-8.48804,41.02379],[-8.49193,41.02215],[-8.48917,41.0134],[-8.49093,41.0117],[-8.49514,41.01079],[-8.49766,41.0117],[-8.50083,41.01039],[-8.50118,41.00941],[-8.50564,41.0093],[-8.51524,41.01539],[-8.52033,41.02539],[-8.52378,41.02882],[-8.52778,41.0358],[-8.52845,41.04051],[-8.53206,41.03914],[-8.53618,41.03611],[-8.54049,41.03632],[-8.5456,41.0337],[-8.54786,41.03095],[-8.54943,41.03082],[-8.55497,41.0265],[-8.55407,41.02307],[-8.55751,41.01835],[-8.55719,41.01556],[-8.56491,41.01491],[-8.56608,41.01381],[-8.59362,41.01411],[-8.59601,41.01543],[-8.59859,41.01794],[-8.59905,41.01979],[-8.60606,41.02569]]]}},{"type":"Feature","properties":{"num":3,"name":"Matosinhos"},"geometry":{"type":"Polygon","coordinates":[[[-8.61478,41.20527],[-8.60956,41.20741],[-8.60721,41.20663],[-8.60556,41.20412],[-8.60249,41.20368],[-8.60156,41.20265],[-8.60168,41.20075],[-8.60038,41.20055],[-8.60023,41.19931],[-8.59737,41.19824],[-8.59545,41.1903],[-8.59668,41.1881],[-8.59688,41.18375],[-8.59898,41.18368],[-8.60416,41.18594],[-8.60933,41.18474],[-8.61156,41.18535],[-8.61704,41.18385],[-8.61652,41.18351],[-8.62182,41.18035],[-8.63197,41.17924],[-8.64263,41.18432],[-8.65306,41.17881],[-8.65778,41.17744],[-8.66184,41.17696],[-8.66408,41.17901],[-8.66668,41.1791],[-8.66823,41.17691],[-8.67535,41.17209],[-8.67886,41.17149],[-8.68423,41.17365],[-8.69038,41.17349],[-8.69372,41.17686],[-8.69739,41.17896],[-8.70198,41.17658],[-8.70414,41.17672],[-8.70566,41.17799],[-8.70201,41.17681],[-8.69749,41.17942],[-8.69857,41.17919],[-8.70616,41.18628],[-8.70984,41.18429],[-8.71079,41.18094],[-8.70838,41.17831],[-8.71024,41.17857],[-8.70808,41.17469],[-8.70815,41.17256],[-8.71227,41.18232],[-8.71132,41.18431],[-8.70678,41.18695],[-8.70705,41.19182],[-8.70848,41.19281],[-8.70803,41.19348],[-8.70897,41.19324],[-8.71032,41.19627],[-8.71236,41.19671],[-8.7115,41.19837],[-8.71411,41.20201],[-8.71624,41.20282],[-8.7152,41.20416],[-8.71722,41.20513],[-8.71587,41.20978],[-8.71597,41.21495],[-8.7167,41.21518],[-8.71617,41.21733],[-8.71683,41.21774],[-8.71595,41.22003],[-8.7167,41.22301],[-8.71799,41.22413],[-8.71724,41.22402],[-8.71815,41.22552],[-8.71749,41.22594],[-8.72048,41.22644],[-8.72247,41.22832],[-8.72295,41.22996],[-8.72207,41.23106],[-8.72402,41.23268],[-8.72454,41.23804],[-8.72916,41.24264],[-8.7267,41.24466],[-8.72411,41.25621],[-8.72495,41.26067],[-8.72884,41.26495],[-8.72761,41.26848],[-8.72862,41.27034],[-8.72049,41.27055],[-8.71767,41.2688],[-8.71716,41.27045],[-8.71449,41.26979],[-8.71276,41.27151],[-8.71148,41.27191],[-8.71037,41.27103],[-8.70887,41.27279],[-8.70742,41.27222],[-8.70543,41.27302],[-8.70166,41.26954],[-8.70224,41.26834],[-8.7015,41.26798],[-8.70211,41.26675],[-8.70138,41.26461],[-8.70278,41.26395],[-8.69882,41.25655],[-8.6962,41.25674],[-8.69453,41.25578],[-8.69212,41.25693],[-8.6901,41.2555],[-8.68815,41.25655],[-8.68664,41.25402],[-8.68486,41.25301],[-8.68479,41.24969],[-8.69345,41.2453],[-8.69289,41.24452],[-8.69398,41.24331],[-8.69243,41.24208],[-8.69339,41.23979],[-8.69244,41.23718],[-8.6697,41.23417],[-8.66792,41.23284],[-8.66923,41.23189],[-8.66799,41.2248],[-8.66602,41.22274],[-8.66143,41.22652],[-8.64931,41.22558],[-8.64774,41.22725],[-8.64783,41.23066],[-8.64921,41.23267],[-8.64795,41.23518],[-8.64613,41.23655],[-8.64304,41.23626],[-8.64081,41.23495],[-8.64162,41.23115],[-8.63557,41.22929],[-8.63722,41.22685],[-8.63652,41.22575],[-8.63186,41.22468],[-8.63141,41.22571],[-8.62768,41.22693],[-8.6224,41.22561],[-8.6239,41.22222],[-8.62289,41.21985],[-8.6204,41.22238],[-8.62161,41.22356],[-8.61952,41.22471],[-8.61633,41.22322],[-8.61567,41.22135],[-8.61446,41.22137],[-8.61413,41.22044],[-8.61425,41.21531],[-8.61253,41.20978],[-8.61268,41.20716],[-8.61478,41.20527]]]}},{"type":"Feature","properties":{"num":4,"name":"Maia"},"geometry":{"type":"Polygon","coordinates":[[[-8.57403,41.19706],[-8.57638,41.19649],[-8.57932,41.19311],[-8.5839,41.1815],[-8.58781,41.17963],[-8.59606,41.18194],[-8.59694,41.1852],[-8.59545,41.1903],[-8.59737,41.19824],[-8.60168,41.20075],[-8.60156,41.20265],[-8.60249,41.20368],[-8.60556,41.20412],[-8.60831,41.20712],[-8.61049,41.20725],[-8.61144,41.20604],[-8.61478,41.20527],[-8.61244,41.20848],[-8.61425,41.21531],[-8.61413,41.22044],[-8.61446,41.22137],[-8.61567,41.22135],[-8.61633,41.22322],[-8.61829,41.22397],[-8.6181,41.22465],[-8.62161,41.22356],[-8.6204,41.22238],[-8.62315,41.21994],[-8.62383,41.22288],[-8.6224,41.22561],[-8.62768,41.22693],[-8.63141,41.22571],[-8.63186,41.22468],[-8.63652,41.22575],[-8.63722,41.22685],[-8.63557,41.22929],[-8.64162,41.23115],[-8.64091,41.23519],[-8.6457,41.23662],[-8.64795,41.23518],[-8.64921,41.23267],[-8.64763,41.22865],[-8.64931,41.22558],[-8.66143,41.22652],[-8.66602,41.22274],[-8.66799,41.2248],[-8.66923,41.23189],[-8.66792,41.23284],[-8.6697,41.23417],[-8.69131,41.23657],[-8.69323,41.23809],[-8.69243,41.24208],[-8.69398,41.24331],[-8.69289,41.24452],[-8.69345,41.2453],[-8.68479,41.24969],[-8.68486,41.25301],[-8.68813,41.2558],[-8.68684,41.25865],[-8.68277,41.26129],[-8.66484,41.26223],[-8.66232,41.25919],[-8.65762,41.25605],[-8.65255,41.25873],[-8.65289,41.25951],[-8.65059,41.26044],[-8.65393,41.26401],[-8.65312,41.26533],[-8.65374,41.26831],[-8.65272,41.27416],[-8.6459,41.27737],[-8.63007,41.28075],[-8.62782,41.28381],[-8.62486,41.28528],[-8.62319,41.28893],[-8.62365,41.29312],[-8.62178,41.29537],[-8.61272,41.29181],[-8.61128,41.29246],[-8.60848,41.29149],[-8.60818,41.28921],[-8.60473,41.2862],[-8.60212,41.28039],[-8.60021,41.28169],[-8.59353,41.28301],[-8.59195,41.28528],[-8.59108,41.28496],[-8.59115,41.27976],[-8.58934,41.27781],[-8.58681,41.2772],[-8.58122,41.2713],[-8.58145,41.27023],[-8.57888,41.26664],[-8.57776,41.26268],[-8.57487,41.26094],[-8.575,41.25951],[-8.56696,41.2583],[-8.56524,41.26139],[-8.56144,41.25941],[-8.56146,41.26159],[-8.56016,41.26237],[-8.56049,41.2645],[-8.55959,41.26509],[-8.56067,41.26755],[-8.55682,41.27204],[-8.54906,41.27486],[-8.54441,41.27531],[-8.54158,41.27492],[-8.53985,41.27365],[-8.53884,41.27412],[-8.54097,41.27646],[-8.5396,41.27748],[-8.54003,41.27818],[-8.53167,41.28453],[-8.52478,41.28654],[-8.51526,41.28581],[-8.51561,41.27415],[-8.51973,41.26843],[-8.52031,41.26902],[-8.52846,41.26349],[-8.53462,41.24763],[-8.53835,41.24076],[-8.54397,41.23385],[-8.54295,41.23328],[-8.54348,41.23219],[-8.54876,41.23096],[-8.55317,41.2337],[-8.56279,41.23584],[-8.56609,41.23775],[-8.56784,41.2401],[-8.57073,41.24039],[-8.56472,41.23472],[-8.56493,41.2324],[-8.56594,41.2317],[-8.56498,41.23112],[-8.56514,41.22709],[-8.56076,41.22204],[-8.56256,41.2214],[-8.55912,41.21993],[-8.55889,41.21655],[-8.56027,41.21466],[-8.55961,41.21416],[-8.56296,41.21165],[-8.56277,41.20779],[-8.5575,41.20577],[-8.555,41.19838],[-8.55541,41.1976],[-8.56028,41.19738],[-8.56344,41.19474],[-8.56527,41.19623],[-8.57132,41.19622],[-8.57158,41.19518],[-8.57403,41.19706]]]}},{"type":"Feature","properties":{"num":5,"name":"Gondomar"},"geometry":{"type":"Polygon","coordinates":[[[-8.51509,41.18973],[-8.50895,41.18325],[-8.50068,41.16963],[-8.49572,41.15942],[-8.49438,41.14575],[-8.48972,41.14542],[-8.48437,41.14623],[-8.48239,41.14745],[-8.47097,41.14076],[-8.47397,41.13605],[-8.46741,41.12055],[-8.46373,41.11589],[-8.45736,41.11562],[-8.45528,41.10961],[-8.4491,41.10027],[-8.44329,41.09243],[-8.43743,41.08693],[-8.42419,41.09121],[-8.42439,41.09213],[-8.42166,41.09292],[-8.42023,41.09518],[-8.41284,41.09775],[-8.40686,41.09503],[-8.4017,41.09011],[-8.39709,41.09047],[-8.39276,41.08699],[-8.3842,41.08429],[-8.37907,41.08],[-8.37875,41.07802],[-8.37343,41.07254],[-8.37257,41.07093],[-8.37337,41.06741],[-8.37274,41.06568],[-8.38031,41.05338],[-8.37588,41.05134],[-8.37523,41.05012],[-8.38141,41.04932],[-8.38964,41.04994],[-8.39866,41.05237],[-8.39911,41.05074],[-8.39634,41.04606],[-8.39908,41.04387],[-8.39828,41.04336],[-8.39897,41.04134],[-8.3982,41.0397],[-8.40008,41.03806],[-8.40067,41.03238],[-8.39569,41.02625],[-8.39077,41.02537],[-8.38984,41.02633],[-8.38707,41.02442],[-8.3844,41.02435],[-8.38343,41.02346],[-8.38317,41.02086],[-8.38603,41.0192],[-8.38543,41.01559],[-8.38781,41.01338],[-8.38501,41.01086],[-8.38541,41.00791],[-8.38393,41.00505],[-8.38419,41.00365],[-8.38922,41.00138],[-8.39042,41.00209],[-8.38885,41.00453],[-8.39356,41.00821],[-8.39436,41.01037],[-8.39677,41.01245],[-8.40108,41.01213],[-8.41522,41.01507],[-8.41901,41.01843],[-8.42999,41.02246],[-8.42866,41.02348],[-8.43301,41.02926],[-8.42922,41.03316],[-8.42838,41.03659],[-8.43202,41.03789],[-8.44306,41.04943],[-8.45805,41.06116],[-8.46678,41.07322],[-8.46888,41.07454],[-8.47553,41.07587],[-8.49306,41.07137],[-8.50405,41.0703],[-8.51385,41.07263],[-8.51887,41.078],[-8.52736,41.0998],[-8.53643,41.10633],[-8.54025,41.11238],[-8.54772,41.12106],[-8.55409,41.12369],[-8.56676,41.12482],[-8.56996,41.12776],[-8.57323,41.13611],[-8.57576,41.13996],[-8.5739,41.14234],[-8.57325,41.14173],[-8.57212,41.14267],[-8.57352,41.14406],[-8.57008,41.14484],[-8.56877,41.14741],[-8.56661,41.14623],[-8.56542,41.14647],[-8.56569,41.14708],[-8.56369,41.14637],[-8.5623,41.14963],[-8.56067,41.14958],[-8.55495,41.15295],[-8.55485,41.15732],[-8.55261,41.15821],[-8.55338,41.16006],[-8.55474,41.15962],[-8.55771,41.15807],[-8.55873,41.15614],[-8.56601,41.16138],[-8.56575,41.16419],[-8.56687,41.16686],[-8.57075,41.16814],[-8.5703,41.17002],[-8.56718,41.17145],[-8.56786,41.17392],[-8.5663,41.17614],[-8.56919,41.17823],[-8.57618,41.18095],[-8.58164,41.18043],[-8.58411,41.18136],[-8.58098,41.18731],[-8.57995,41.19191],[-8.57638,41.19649],[-8.57403,41.19706],[-8.57158,41.19518],[-8.57132,41.19622],[-8.56527,41.19623],[-8.56344,41.19474],[-8.56028,41.19738],[-8.55862,41.19767],[-8.55595,41.19779],[-8.55354,41.19626],[-8.55042,41.19784],[-8.54841,41.20086],[-8.54546,41.20022],[-8.54093,41.2028],[-8.52732,41.20327],[-8.51759,41.19425],[-8.51509,41.18973]]]}},{"type":"Feature","properties":{"num":6,"name":"Valongo"},"geometry":{"type":"Polygon","coordinates":[[[-8.4537,41.16106],[-8.47097,41.14076],[-8.48239,41.14745],[-8.48437,41.14623],[-8.48972,41.14542],[-8.49438,41.14575],[-8.49572,41.15942],[-8.50068,41.16963],[-8.50895,41.18325],[-8.5143,41.18853],[-8.51759,41.19425],[-8.52732,41.20327],[-8.54093,41.2028],[-8.54546,41.20022],[-8.54841,41.20086],[-8.551,41.19736],[-8.55354,41.19626],[-8.55505,41.19674],[-8.5575,41.20577],[-8.56277,41.20779],[-8.56296,41.21165],[-8.55961,41.21416],[-8.56027,41.21466],[-8.55889,41.21655],[-8.55912,41.21993],[-8.56256,41.2214],[-8.56076,41.22204],[-8.56514,41.22709],[-8.56498,41.23112],[-8.56594,41.2317],[-8.56493,41.2324],[-8.56472,41.23472],[-8.57073,41.24039],[-8.56784,41.2401],[-8.56609,41.23775],[-8.56279,41.23584],[-8.55317,41.2337],[-8.54876,41.23096],[-8.54348,41.23219],[-8.54295,41.23328],[-8.54397,41.23385],[-8.53835,41.24076],[-8.53462,41.24763],[-8.52888,41.26284],[-8.52682,41.26523],[-8.52327,41.2665],[-8.52031,41.26902],[-8.51511,41.26137],[-8.51306,41.25484],[-8.51251,41.24942],[-8.49601,41.23807],[-8.46379,41.24437],[-8.45405,41.2445],[-8.45234,41.24718],[-8.45216,41.24334],[-8.44011,41.24446],[-8.44289,41.24209],[-8.44692,41.24315],[-8.44886,41.24266],[-8.44843,41.24201],[-8.45055,41.24039],[-8.44967,41.2404],[-8.44945,41.2386],[-8.44473,41.23696],[-8.44257,41.23732],[-8.44284,41.23439],[-8.44381,41.23349],[-8.44032,41.23093],[-8.4415,41.22712],[-8.44058,41.22555],[-8.44272,41.22304],[-8.44404,41.21722],[-8.45092,41.2091],[-8.45233,41.20323],[-8.4468,41.19993],[-8.4466,41.19711],[-8.45133,41.19267],[-8.45756,41.19262],[-8.45649,41.19066],[-8.45839,41.18874],[-8.45152,41.18834],[-8.44839,41.18061],[-8.44506,41.17943],[-8.44233,41.17405],[-8.44387,41.1714],[-8.44204,41.16736],[-8.44385,41.16559],[-8.45167,41.16321],[-8.4521,41.16111],[-8.4537,41.16106]]]}},{"type":"Feature","properties":{"num":7,"name":"Vila do Conde"},"geometry":{"type":"Polygon","coordinates":[[[-8.73944,41.32293],[-8.73984,41.33235],[-8.74138,41.3366],[-8.74606,41.33968],[-8.74753,41.3387],[-8.74638,41.33973],[-8.74898,41.34008],[-8.74925,41.33746],[-8.74985,41.3366],[-8.75031,41.34024],[-8.7554,41.34275],[-8.75419,41.34742],[-8.75521,41.34819],[-8.75437,41.34857],[-8.75447,41.35049],[-8.75571,41.35111],[-8.75516,41.35489],[-8.75949,41.36117],[-8.76089,41.36188],[-8.76231,41.36118],[-8.761,41.36206],[-8.76169,41.36261],[-8.76108,41.36454],[-8.76206,41.36575],[-8.76284,41.36536],[-8.7636,41.36686],[-8.76195,41.36627],[-8.7617,41.36789],[-8.76597,41.36953],[-8.76796,41.37213],[-8.75362,41.37396],[-8.74806,41.37297],[-8.74004,41.36974],[-8.73958,41.36457],[-8.73498,41.36459],[-8.7297,41.36661],[-8.72838,41.36594],[-8.72744,41.36764],[-8.72183,41.36797],[-8.72157,41.37073],[-8.72306,41.37274],[-8.72235,41.37453],[-8.72367,41.37495],[-8.72553,41.37766],[-8.72922,41.37889],[-8.7303,41.38462],[-8.7292,41.38511],[-8.72898,41.38657],[-8.72345,41.38934],[-8.72053,41.39519],[-8.7144,41.39379],[-8.7098,41.39666],[-8.71114,41.39825],[-8.71288,41.39863],[-8.71001,41.40369],[-8.71099,41.40777],[-8.71226,41.41022],[-8.71582,41.41311],[-8.71106,41.41618],[-8.71024,41.41858],[-8.70196,41.42568],[-8.69979,41.42551],[-8.6813,41.41558],[-8.67963,41.41384],[-8.6737,41.41134],[-8.6717,41.40952],[-8.67137,41.40752],[-8.66808,41.40897],[-8.66818,41.41008],[-8.66578,41.40821],[-8.65563,41.41115],[-8.65352,41.40798],[-8.65382,41.40713],[-8.65121,41.40795],[-8.64795,41.40607],[-8.64466,41.39899],[-8.64195,41.39676],[-8.64076,41.39435],[-8.63079,41.38922],[-8.6293,41.3864],[-8.62568,41.38498],[-8.62073,41.37927],[-8.62136,41.37628],[-8.6183,41.37249],[-8.61543,41.36455],[-8.61604,41.36241],[-8.6152,41.35647],[-8.61627,41.35476],[-8.61375,41.35327],[-8.61281,41.35131],[-8.61118,41.3469],[-8.61062,41.34111],[-8.6134,41.34137],[-8.61846,41.33657],[-8.6211,41.33587],[-8.62277,41.33789],[-8.62098,41.34115],[-8.62199,41.3425],[-8.63159,41.32993],[-8.63449,41.31955],[-8.63062,41.3113],[-8.63115,41.31085],[-8.62807,41.30931],[-8.6241,41.29896],[-8.62235,41.29782],[-8.6218,41.29521],[-8.62365,41.29312],[-8.62319,41.28893],[-8.62486,41.28528],[-8.62782,41.28381],[-8.63141,41.27999],[-8.6459,41.27737],[-8.65272,41.27416],[-8.65374,41.26831],[-8.65312,41.26533],[-8.65393,41.26401],[-8.65059,41.26044],[-8.65762,41.25605],[-8.66585,41.26244],[-8.68277,41.26129],[-8.6901,41.2555],[-8.69212,41.25693],[-8.69453,41.25578],[-8.6962,41.25674],[-8.69882,41.25655],[-8.70278,41.26395],[-8.70138,41.26461],[-8.70211,41.26675],[-8.7015,41.26798],[-8.70224,41.26834],[-8.70166,41.26954],[-8.70543,41.27302],[-8.70742,41.27222],[-8.70887,41.27279],[-8.71037,41.27103],[-8.71148,41.27191],[-8.71276,41.27151],[-8.71449,41.26979],[-8.71716,41.27045],[-8.71767,41.2688],[-8.72049,41.27055],[-8.72886,41.27034],[-8.72972,41.27457],[-8.73086,41.27492],[-8.72969,41.27588],[-8.7297,41.27892],[-8.73235,41.2822],[-8.73365,41.29091],[-8.73817,41.29823],[-8.73996,41.30782],[-8.74249,41.31007],[-8.7411,41.31188],[-8.73944,41.32293]]]}},{"type":"Feature","properties":{"num":8,"name":"Póvoa de Varzim"},"geometry":{"type":"Polygon","coordinates":[[[-8.77952,41.4449],[-8.77849,41.45068],[-8.77869,41.45655],[-8.77604,41.46815],[-8.77643,41.47197],[-8.76879,41.46875],[-8.75968,41.4679],[-8.75259,41.46614],[-8.75019,41.46636],[-8.74574,41.46864],[-8.74576,41.46748],[-8.7402,41.46366],[-8.73949,41.46056],[-8.73607,41.45852],[-8.73395,41.4556],[-8.73043,41.45516],[-8.72952,41.45361],[-8.72323,41.45367],[-8.7198,41.45527],[-8.70935,41.45352],[-8.70857,41.45024],[-8.70585,41.44834],[-8.7017,41.44245],[-8.68319,41.44916],[-8.66808,41.4446],[-8.66242,41.4415],[-8.6574,41.4363],[-8.65104,41.42577],[-8.65014,41.41969],[-8.6403,41.41764],[-8.63466,41.41866],[-8.62935,41.41405],[-8.62272,41.41487],[-8.62238,41.40975],[-8.61577,41.41051],[-8.61346,41.40817],[-8.60523,41.41266],[-8.59583,41.40072],[-8.59065,41.40008],[-8.59233,41.39518],[-8.59173,41.39394],[-8.59692,41.39352],[-8.5997,41.3919],[-8.60869,41.39075],[-8.61022,41.39128],[-8.6101,41.38878],[-8.61702,41.38721],[-8.62278,41.38407],[-8.62332,41.38274],[-8.62568,41.38498],[-8.6293,41.3864],[-8.63156,41.38976],[-8.64076,41.39435],[-8.64195,41.39676],[-8.64466,41.39899],[-8.64795,41.40607],[-8.65121,41.40795],[-8.65382,41.40713],[-8.65352,41.40798],[-8.65563,41.41115],[-8.66578,41.40821],[-8.66818,41.41008],[-8.66808,41.40897],[-8.67137,41.40752],[-8.6717,41.40952],[-8.6737,41.41134],[-8.67963,41.41384],[-8.6813,41.41558],[-8.69979,41.42551],[-8.70196,41.42568],[-8.71024,41.41858],[-8.71106,41.41618],[-8.71582,41.41311],[-8.71226,41.41022],[-8.71099,41.40777],[-8.71001,41.40369],[-8.71288,41.39863],[-8.71114,41.39825],[-8.7098,41.39666],[-8.7144,41.39379],[-8.72053,41.39519],[-8.72345,41.38934],[-8.72898,41.38657],[-8.7292,41.38511],[-8.7303,41.38462],[-8.72922,41.37889],[-8.72553,41.37766],[-8.72367,41.37495],[-8.72235,41.37453],[-8.72306,41.37274],[-8.72157,41.37073],[-8.72183,41.36797],[-8.72744,41.36764],[-8.72838,41.36594],[-8.7297,41.36661],[-8.73498,41.36459],[-8.73958,41.36457],[-8.74004,41.36974],[-8.74806,41.37297],[-8.75362,41.37396],[-8.7584,41.37371],[-8.75845,41.37287],[-8.7621,41.37235],[-8.76862,41.37393],[-8.77173,41.37042],[-8.76873,41.37576],[-8.76972,41.38003],[-8.77215,41.38441],[-8.77509,41.3861],[-8.77554,41.39209],[-8.77767,41.39405],[-8.77886,41.39405],[-8.77873,41.39511],[-8.78073,41.39522],[-8.77888,41.40075],[-8.77943,41.40284],[-8.781,41.40596],[-8.78352,41.40757],[-8.78378,41.40937],[-8.78661,41.41183],[-8.78798,41.41195],[-8.7876,41.4131],[-8.78906,41.41592],[-8.78605,41.42031],[-8.78433,41.42665],[-8.78467,41.43294],[-8.77952,41.4449]]]}},{"type":"Feature","properties":{"num":9,"name":"Santo Tirso"},"geometry":{"type":"Polygon","coordinates":[[[-8.5096,41.31399],[-8.5129,41.3205],[-8.51206,41.32936],[-8.50682,41.33627],[-8.50667,41.34279],[-8.50962,41.3451],[-8.51618,41.34632],[-8.5142,41.34945],[-8.51733,41.35402],[-8.51608,41.35628],[-8.50957,41.36035],[-8.50765,41.36377],[-8.50646,41.36286],[-8.50286,41.36351],[-8.50145,41.36834],[-8.49594,41.36822],[-8.49109,41.37011],[-8.48413,41.36835],[-8.47519,41.37244],[-8.47122,41.37286],[-8.46822,41.37116],[-8.46448,41.37265],[-8.46369,41.37382],[-8.45513,41.37563],[-8.45319,41.37475],[-8.45228,41.37562],[-8.45168,41.37458],[-8.44934,41.37396],[-8.44983,41.37132],[-8.44894,41.36978],[-8.44728,41.36844],[-8.44478,41.36862],[-8.44179,41.36715],[-8.44251,41.36595],[-8.44091,41.36293],[-8.43151,41.36296],[-8.42696,41.36545],[-8.42252,41.36598],[-8.42018,41.36857],[-8.41597,41.37088],[-8.41537,41.37284],[-8.41188,41.37591],[-8.40932,41.37637],[-8.4063,41.37846],[-8.40696,41.38025],[-8.40406,41.38352],[-8.39943,41.38429],[-8.38667,41.38141],[-8.38857,41.38127],[-8.38989,41.37718],[-8.39255,41.37541],[-8.3931,41.37316],[-8.39231,41.37179],[-8.39487,41.37084],[-8.39422,41.36955],[-8.39548,41.36918],[-8.39463,41.36616],[-8.39528,41.36375],[-8.3937,41.36199],[-8.38866,41.36407],[-8.38399,41.36478],[-8.38282,41.36721],[-8.37877,41.36827],[-8.37656,41.36623],[-8.37676,41.36411],[-8.37559,41.36235],[-8.36927,41.36374],[-8.36521,41.36349],[-8.36139,41.36608],[-8.3572,41.36511],[-8.35113,41.36936],[-8.34486,41.37177],[-8.34268,41.37555],[-8.33561,41.37447],[-8.33131,41.37555],[-8.32992,41.37703],[-8.32609,41.37685],[-8.32559,41.37252],[-8.32809,41.36577],[-8.32707,41.36367],[-8.32387,41.36212],[-8.32234,41.35735],[-8.31981,41.35522],[-8.31797,41.35605],[-8.31645,41.35126],[-8.31869,41.34704],[-8.32046,41.34565],[-8.32908,41.34177],[-8.33975,41.33497],[-8.34702,41.33589],[-8.35181,41.33371],[-8.37102,41.33242],[-8.37572,41.3358],[-8.38424,41.33722],[-8.3893,41.33464],[-8.39156,41.33476],[-8.39479,41.33342],[-8.39372,41.33243],[-8.39532,41.33104],[-8.3998,41.32916],[-8.39552,41.32659],[-8.39184,41.32137],[-8.39212,41.31972],[-8.39521,41.31636],[-8.39603,41.31288],[-8.39798,41.31041],[-8.40529,41.30661],[-8.41436,41.30445],[-8.4167,41.30262],[-8.42097,41.30203],[-8.4299,41.29798],[-8.42927,41.28689],[-8.43381,41.27797],[-8.45033,41.26203],[-8.4492,41.25975],[-8.45012,41.25506],[-8.45234,41.24718],[-8.45405,41.2445],[-8.46379,41.24437],[-8.49601,41.23807],[-8.51251,41.24942],[-8.51306,41.25484],[-8.51511,41.26137],[-8.51985,41.26887],[-8.51561,41.27415],[-8.5153,41.28933],[-8.5109,41.29275],[-8.5095,41.29731],[-8.50763,41.29875],[-8.51009,41.30215],[-8.50843,41.30932],[-8.5096,41.31399]]]}},{"type":"Feature","properties":{"num":10,"name":"Trofa"},"geometry":{"type":"Polygon","coordinates":[[[-8.61901,41.33624],[-8.61296,41.34148],[-8.60367,41.33858],[-8.60257,41.3409],[-8.60254,41.34547],[-8.59784,41.34692],[-8.59218,41.34604],[-8.57935,41.34697],[-8.57544,41.34562],[-8.56873,41.34635],[-8.55896,41.34433],[-8.55018,41.34786],[-8.54392,41.34683],[-8.53723,41.343],[-8.5289,41.34665],[-8.51894,41.34567],[-8.51618,41.34632],[-8.50962,41.3451],[-8.50667,41.34279],[-8.50618,41.33929],[-8.50682,41.33627],[-8.51206,41.32936],[-8.5129,41.3205],[-8.50886,41.31168],[-8.50843,41.30932],[-8.51009,41.30215],[-8.50763,41.29875],[-8.5095,41.29731],[-8.5109,41.29275],[-8.5153,41.28933],[-8.51526,41.28581],[-8.52478,41.28654],[-8.53167,41.28453],[-8.54003,41.27818],[-8.5396,41.27748],[-8.54097,41.27646],[-8.53884,41.27412],[-8.53985,41.27365],[-8.54158,41.27492],[-8.54441,41.27531],[-8.54906,41.27486],[-8.55682,41.27204],[-8.56067,41.26755],[-8.55959,41.26509],[-8.56049,41.2645],[-8.56016,41.26237],[-8.56146,41.26159],[-8.56144,41.25941],[-8.56524,41.26139],[-8.56696,41.2583],[-8.575,41.25951],[-8.57487,41.26094],[-8.57776,41.26268],[-8.57888,41.26664],[-8.58145,41.27023],[-8.58122,41.2713],[-8.58681,41.2772],[-8.58934,41.27781],[-8.59115,41.27976],[-8.59108,41.28496],[-8.59195,41.28528],[-8.59353,41.28301],[-8.60021,41.28169],[-8.60212,41.28039],[-8.60473,41.2862],[-8.60818,41.28921],[-8.60848,41.29149],[-8.61128,41.29246],[-8.61272,41.29181],[-8.62178,41.29537],[-8.62235,41.29782],[-8.6241,41.29896],[-8.62807,41.30931],[-8.63115,41.31085],[-8.63062,41.3113],[-8.63449,41.31955],[-8.63159,41.32993],[-8.62199,41.3425],[-8.62098,41.34115],[-8.62277,41.33789],[-8.62139,41.33606],[-8.61901,41.33624]]]}},{"type":"Feature","properties":{"num":11,"name":"Paredes"},"geometry":{"type":"Polygon","coordinates":[[[-8.35073,41.18599],[-8.35009,41.18358],[-8.35072,41.18276],[-8.34827,41.18272],[-8.34656,41.18064],[-8.3472,41.17883],[-8.3453,41.17656],[-8.34459,41.17315],[-8.34824,41.17216],[-8.34879,41.16914],[-8.35094,41.16929],[-8.35113,41.17064],[-8.35356,41.17122],[-8.36282,41.16853],[-8.37147,41.15779],[-8.37289,41.15728],[-8.37538,41.15929],[-8.38011,41.1555],[-8.3816,41.15216],[-8.37904,41.15149],[-8.37962,41.14846],[-8.37729,41.14517],[-8.37109,41.14029],[-8.38202,41.13546],[-8.38306,41.13374],[-8.39257,41.12675],[-8.3924,41.12417],[-8.38743,41.11547],[-8.38067,41.10821],[-8.37141,41.09389],[-8.37426,41.09082],[-8.37147,41.08914],[-8.36957,41.08552],[-8.37108,41.08233],[-8.36844,41.07686],[-8.36953,41.07401],[-8.36851,41.07228],[-8.36902,41.06829],[-8.37288,41.0712],[-8.37726,41.07733],[-8.37875,41.07802],[-8.37907,41.08],[-8.3842,41.08429],[-8.39276,41.08699],[-8.39709,41.09047],[-8.4017,41.09011],[-8.40686,41.09503],[-8.41284,41.09775],[-8.42023,41.09518],[-8.42166,41.09292],[-8.42439,41.09213],[-8.42419,41.09121],[-8.43743,41.08693],[-8.44329,41.09243],[-8.4491,41.10027],[-8.45528,41.10961],[-8.45736,41.11562],[-8.46373,41.11589],[-8.46741,41.12055],[-8.47397,41.13605],[-8.4677,41.14519],[-8.4537,41.16106],[-8.4521,41.16111],[-8.45167,41.16321],[-8.44385,41.16559],[-8.44204,41.16736],[-8.44387,41.1714],[-8.44233,41.17405],[-8.44506,41.17943],[-8.44839,41.18061],[-8.45152,41.18834],[-8.45839,41.18874],[-8.45649,41.19066],[-8.45756,41.19262],[-8.45133,41.19267],[-8.4466,41.19711],[-8.4468,41.19993],[-8.45233,41.20323],[-8.45092,41.2091],[-8.44404,41.21722],[-8.44272,41.22304],[-8.44058,41.22555],[-8.4415,41.22712],[-8.44032,41.23093],[-8.44381,41.23349],[-8.44284,41.23439],[-8.44257,41.23732],[-8.44473,41.23696],[-8.44945,41.2386],[-8.44967,41.2404],[-8.45055,41.24039],[-8.44843,41.24201],[-8.44886,41.24266],[-8.44692,41.24315],[-8.44289,41.24209],[-8.43999,41.24426],[-8.43815,41.24827],[-8.432,41.25298],[-8.42347,41.25331],[-8.42147,41.25391],[-8.41843,41.25679],[-8.41545,41.25577],[-8.41261,41.25713],[-8.41076,41.2523],[-8.40373,41.24907],[-8.40428,41.2473],[-8.40513,41.24779],[-8.40798,41.24538],[-8.40752,41.24439],[-8.40866,41.24354],[-8.4085,41.24246],[-8.40158,41.24362],[-8.39818,41.24276],[-8.39152,41.24631],[-8.38476,41.24715],[-8.37876,41.2522],[-8.37582,41.2533],[-8.37635,41.25398],[-8.37239,41.25796],[-8.36372,41.25709],[-8.35442,41.25969],[-8.34783,41.25898],[-8.34427,41.25961],[-8.34331,41.25833],[-8.33973,41.25844],[-8.34039,41.25786],[-8.33857,41.25735],[-8.33766,41.25523],[-8.3368,41.25544],[-8.33496,41.25187],[-8.33299,41.25289],[-8.33351,41.25649],[-8.32662,41.25473],[-8.32046,41.25126],[-8.31825,41.25179],[-8.31094,41.24982],[-8.31156,41.24804],[-8.31265,41.24761],[-8.3091,41.24624],[-8.30785,41.24335],[-8.31029,41.24128],[-8.3086,41.23796],[-8.30795,41.23372],[-8.2962,41.23081],[-8.29647,41.22944],[-8.30395,41.22066],[-8.30857,41.21921],[-8.31409,41.21528],[-8.31549,41.21062],[-8.31678,41.21075],[-8.31854,41.20932],[-8.31852,41.2066],[-8.32219,41.20351],[-8.32009,41.20088],[-8.32701,41.19803],[-8.32917,41.19583],[-8.33125,41.19519],[-8.335,41.19489],[-8.33773,41.19758],[-8.33872,41.1972],[-8.34677,41.1916],[-8.34752,41.18779],[-8.35073,41.18599]]]}},{"type":"Feature","properties":{"num":12,"name":"Penafiel"},"geometry":{"type":"Polygon","coordinates":[[[-8.22791,41.18344],[-8.20968,41.17776],[-8.20882,41.17669],[-8.2109,41.17023],[-8.20693,41.16768],[-8.20327,41.16777],[-8.19769,41.17204],[-8.1947,41.17031],[-8.19145,41.16575],[-8.19459,41.16032],[-8.19886,41.15732],[-8.20385,41.15189],[-8.21041,41.15166],[-8.21554,41.14752],[-8.22702,41.14496],[-8.22963,41.14347],[-8.23077,41.14165],[-8.23001,41.13613],[-8.23109,41.13267],[-8.22673,41.13093],[-8.22676,41.12916],[-8.24806,41.10992],[-8.25214,41.10092],[-8.25851,41.09751],[-8.27442,41.09564],[-8.28267,41.09348],[-8.29027,41.08621],[-8.29254,41.0829],[-8.29296,41.08015],[-8.29517,41.07975],[-8.29829,41.07697],[-8.30071,41.06972],[-8.30374,41.06674],[-8.31471,41.05839],[-8.32701,41.05791],[-8.3336,41.05331],[-8.3428,41.04289],[-8.34729,41.04061],[-8.35216,41.0401],[-8.35637,41.04119],[-8.3685,41.05015],[-8.37523,41.05012],[-8.37588,41.05134],[-8.38031,41.05338],[-8.37274,41.06568],[-8.37337,41.06741],[-8.37257,41.07093],[-8.36902,41.06829],[-8.36851,41.07228],[-8.36953,41.07401],[-8.36844,41.07686],[-8.37108,41.08233],[-8.36957,41.08552],[-8.37147,41.08914],[-8.37426,41.09082],[-8.37141,41.09389],[-8.38067,41.10821],[-8.38743,41.11547],[-8.3924,41.12417],[-8.39257,41.12675],[-8.38306,41.13374],[-8.38202,41.13546],[-8.37109,41.14029],[-8.37729,41.14517],[-8.37962,41.14846],[-8.37904,41.15149],[-8.3816,41.15216],[-8.38011,41.1555],[-8.37538,41.15929],[-8.37289,41.15728],[-8.37147,41.15779],[-8.36282,41.16853],[-8.35356,41.17122],[-8.35113,41.17064],[-8.35094,41.16929],[-8.34879,41.16914],[-8.34824,41.17216],[-8.34459,41.17315],[-8.3453,41.17656],[-8.3472,41.17883],[-8.34656,41.18064],[-8.34827,41.18272],[-8.35072,41.18276],[-8.35009,41.18358],[-8.35099,41.18576],[-8.34752,41.18779],[-8.34677,41.1916],[-8.33773,41.19758],[-8.335,41.19489],[-8.33125,41.19519],[-8.32917,41.19583],[-8.32701,41.19803],[-8.32009,41.20088],[-8.32219,41.20351],[-8.31852,41.2066],[-8.31854,41.20932],[-8.31678,41.21075],[-8.31549,41.21062],[-8.31515,41.21326],[-8.31272,41.21678],[-8.30395,41.22066],[-8.29504,41.23164],[-8.29182,41.23137],[-8.29098,41.23286],[-8.28692,41.23387],[-8.27743,41.23884],[-8.27856,41.24179],[-8.27825,41.24469],[-8.27947,41.24603],[-8.27687,41.24801],[-8.27315,41.2434],[-8.26902,41.24367],[-8.2679,41.24205],[-8.26046,41.24003],[-8.25618,41.24054],[-8.2417,41.23776],[-8.23229,41.23966],[-8.22181,41.24522],[-8.21642,41.24618],[-8.21378,41.2445],[-8.20677,41.24579],[-8.20426,41.2441],[-8.20491,41.24305],[-8.20189,41.24104],[-8.19362,41.24269],[-8.18961,41.24096],[-8.19267,41.23826],[-8.17946,41.23528],[-8.17619,41.23321],[-8.17351,41.23387],[-8.17247,41.23245],[-8.17325,41.23144],[-8.17254,41.22719],[-8.17072,41.22724],[-8.16896,41.22591],[-8.17138,41.22393],[-8.16965,41.22306],[-8.16907,41.22126],[-8.17664,41.21605],[-8.18291,41.21632],[-8.18829,41.22067],[-8.19026,41.22121],[-8.19236,41.22022],[-8.19195,41.21804],[-8.20009,41.21759],[-8.20678,41.21848],[-8.21482,41.21499],[-8.21778,41.21509],[-8.22614,41.20784],[-8.23064,41.20622],[-8.23142,41.20531],[-8.23055,41.20411],[-8.23212,41.20244],[-8.23247,41.19981],[-8.23567,41.1971],[-8.2365,41.1944],[-8.23383,41.19023],[-8.23424,41.18792],[-8.22791,41.18344]]]}},{"type":"Feature","properties":{"num":13,"name":"Paços de Ferreira"},"geometry":{"type":"Polygon","coordinates":[[[-8.38407,41.24757],[-8.39152,41.24631],[-8.39818,41.24276],[-8.40158,41.24362],[-8.4085,41.24246],[-8.40866,41.24354],[-8.40752,41.24439],[-8.40798,41.24538],[-8.40513,41.24779],[-8.40428,41.2473],[-8.40373,41.24907],[-8.41076,41.2523],[-8.41147,41.25582],[-8.41283,41.25717],[-8.41545,41.25577],[-8.41843,41.25679],[-8.42147,41.25391],[-8.42347,41.25331],[-8.432,41.25298],[-8.43815,41.24827],[-8.44055,41.24433],[-8.45216,41.24334],[-8.45246,41.24652],[-8.4492,41.25975],[-8.45033,41.26203],[-8.43381,41.27797],[-8.42927,41.28689],[-8.4299,41.29798],[-8.42097,41.30203],[-8.4167,41.30262],[-8.41436,41.30445],[-8.40529,41.30661],[-8.39798,41.31041],[-8.39603,41.31288],[-8.39521,41.31636],[-8.39212,41.31972],[-8.39184,41.32137],[-8.39552,41.32659],[-8.3998,41.32916],[-8.39532,41.33104],[-8.39372,41.33243],[-8.39479,41.33342],[-8.39156,41.33476],[-8.3893,41.33464],[-8.38424,41.33722],[-8.37572,41.3358],[-8.37102,41.33242],[-8.35181,41.33371],[-8.34702,41.33589],[-8.33999,41.33517],[-8.32676,41.32482],[-8.32694,41.31914],[-8.32493,41.31909],[-8.32522,41.31761],[-8.3226,41.31623],[-8.32002,41.31761],[-8.3173,41.31694],[-8.32134,41.30904],[-8.33422,41.29854],[-8.32309,41.29474],[-8.33026,41.28708],[-8.33145,41.28686],[-8.33064,41.28526],[-8.33124,41.28237],[-8.33461,41.27616],[-8.33548,41.26984],[-8.33453,41.26822],[-8.33136,41.2668],[-8.3338,41.26205],[-8.33299,41.25289],[-8.33496,41.25187],[-8.3368,41.25544],[-8.33766,41.25523],[-8.33857,41.25735],[-8.34039,41.25786],[-8.33973,41.25844],[-8.34331,41.25833],[-8.34427,41.25961],[-8.34783,41.25898],[-8.35442,41.25969],[-8.36372,41.25709],[-8.37239,41.25796],[-8.37635,41.25398],[-8.37582,41.2533],[-8.37876,41.2522],[-8.38407,41.24757]]]}},{"type":"Feature","properties":{"num":14,"name":"Lousada"},"geometry":{"type":"Polygon","coordinates":[[[-8.3173,41.31694],[-8.32002,41.31761],[-8.3226,41.31623],[-8.32522,41.31761],[-8.32493,41.31909],[-8.32694,41.31914],[-8.32676,41.32482],[-8.33975,41.33497],[-8.32908,41.34177],[-8.32046,41.34565],[-8.31869,41.34704],[-8.31645,41.35126],[-8.30966,41.35007],[-8.30925,41.34752],[-8.30681,41.34737],[-8.30581,41.3465],[-8.30671,41.34559],[-8.30402,41.34327],[-8.30123,41.34396],[-8.29822,41.34337],[-8.29648,41.34163],[-8.28987,41.34329],[-8.28786,41.34266],[-8.28732,41.34107],[-8.28296,41.34425],[-8.27838,41.34583],[-8.26912,41.337],[-8.26659,41.33041],[-8.27355,41.32531],[-8.27711,41.32474],[-8.27956,41.3232],[-8.28,41.32061],[-8.27861,41.31556],[-8.27718,41.31434],[-8.26583,41.31269],[-8.2626,41.31041],[-8.25856,41.31185],[-8.25446,41.31169],[-8.25584,41.3127],[-8.2552,41.31342],[-8.25576,41.31494],[-8.24876,41.31445],[-8.2474,41.3156],[-8.24529,41.31138],[-8.24247,41.30935],[-8.22763,41.30277],[-8.2221,41.30319],[-8.21888,41.30664],[-8.21918,41.30975],[-8.21411,41.31138],[-8.2112,41.31134],[-8.21036,41.30588],[-8.21096,41.30452],[-8.20814,41.30291],[-8.20611,41.29504],[-8.20365,41.29391],[-8.19353,41.29496],[-8.19151,41.29113],[-8.19667,41.28667],[-8.19938,41.28637],[-8.2028,41.28439],[-8.20734,41.2782],[-8.20975,41.27646],[-8.20829,41.27144],[-8.20865,41.26691],[-8.21131,41.26473],[-8.21225,41.2583],[-8.21127,41.25808],[-8.21372,41.25556],[-8.21631,41.25036],[-8.21575,41.24531],[-8.21642,41.24618],[-8.22399,41.24464],[-8.2286,41.24105],[-8.2417,41.23776],[-8.25618,41.24054],[-8.26046,41.24003],[-8.2679,41.24205],[-8.26902,41.24367],[-8.27315,41.2434],[-8.27687,41.24801],[-8.27947,41.24603],[-8.27825,41.24469],[-8.27856,41.24179],[-8.27743,41.23884],[-8.27821,41.23806],[-8.29098,41.23286],[-8.29182,41.23137],[-8.29862,41.23095],[-8.30817,41.23404],[-8.3086,41.23796],[-8.31029,41.24128],[-8.30785,41.24335],[-8.3091,41.24624],[-8.31265,41.24761],[-8.31156,41.24804],[-8.31094,41.24982],[-8.31825,41.25179],[-8.32046,41.25126],[-8.32662,41.25473],[-8.33351,41.25649],[-8.3338,41.26205],[-8.33136,41.2668],[-8.33453,41.26822],[-8.33548,41.26984],[-8.33461,41.27616],[-8.33124,41.28237],[-8.33064,41.28526],[-8.33145,41.28686],[-8.33026,41.28708],[-8.32309,41.29474],[-8.33422,41.29854],[-8.32134,41.30904],[-8.3173,41.31694]]]}},{"type":"Feature","properties":{"num":15,"name":"Felgueiras"},"geometry":{"type":"Polygon","coordinates":[[[-8.26659,41.33041],[-8.26912,41.337],[-8.27838,41.34583],[-8.27853,41.34871],[-8.27705,41.35659],[-8.27569,41.35882],[-8.27592,41.36089],[-8.27364,41.36296],[-8.27409,41.36488],[-8.2783,41.36722],[-8.27789,41.36937],[-8.27338,41.37174],[-8.26975,41.37131],[-8.26783,41.37294],[-8.26841,41.37443],[-8.26694,41.37508],[-8.26728,41.37575],[-8.26583,41.37732],[-8.26428,41.37641],[-8.26341,41.37795],[-8.25977,41.37859],[-8.26027,41.38054],[-8.25603,41.38219],[-8.25734,41.38347],[-8.25683,41.38493],[-8.25427,41.38479],[-8.25069,41.38657],[-8.24996,41.38811],[-8.24615,41.38965],[-8.24712,41.39196],[-8.2462,41.39325],[-8.24712,41.39366],[-8.24606,41.39422],[-8.24434,41.393],[-8.24107,41.39379],[-8.23457,41.3928],[-8.22858,41.39522],[-8.2263,41.3926],[-8.2223,41.39348],[-8.22282,41.39487],[-8.22037,41.3977],[-8.22236,41.39974],[-8.22173,41.40277],[-8.22412,41.40588],[-8.22197,41.40691],[-8.22201,41.40802],[-8.22073,41.40881],[-8.22331,41.40872],[-8.22332,41.40959],[-8.2154,41.41187],[-8.20891,41.41144],[-8.20058,41.40884],[-8.18552,41.40997],[-8.18051,41.40251],[-8.17897,41.39713],[-8.17482,41.39967],[-8.16583,41.40028],[-8.16196,41.39297],[-8.15988,41.39214],[-8.16042,41.38633],[-8.15882,41.38116],[-8.14556,41.37889],[-8.14461,41.37714],[-8.14038,41.37836],[-8.1396,41.37768],[-8.13838,41.37425],[-8.14271,41.37159],[-8.14293,41.36858],[-8.14598,41.36472],[-8.14645,41.3603],[-8.14466,41.35956],[-8.14084,41.36081],[-8.13778,41.36049],[-8.1351,41.35718],[-8.13076,41.35532],[-8.13154,41.35228],[-8.13013,41.34857],[-8.12048,41.34577],[-8.1205,41.3438],[-8.11967,41.34316],[-8.11875,41.34379],[-8.11528,41.34022],[-8.11197,41.33858],[-8.1114,41.33735],[-8.11324,41.33646],[-8.11213,41.33264],[-8.10962,41.33188],[-8.11139,41.32971],[-8.11103,41.32849],[-8.11676,41.32974],[-8.11545,41.32821],[-8.1208,41.32481],[-8.12192,41.31862],[-8.12838,41.31719],[-8.12999,41.31527],[-8.13544,41.31449],[-8.13955,41.31602],[-8.14125,41.31577],[-8.144,41.31736],[-8.14677,41.31596],[-8.14606,41.3149],[-8.14661,41.31344],[-8.15072,41.31177],[-8.15604,41.31359],[-8.16378,41.31436],[-8.17162,41.31117],[-8.18001,41.30217],[-8.18498,41.30239],[-8.19224,41.29423],[-8.19551,41.29505],[-8.19823,41.294],[-8.20365,41.29391],[-8.20611,41.29504],[-8.20814,41.30291],[-8.21093,41.30442],[-8.21036,41.30588],[-8.2112,41.31134],[-8.21411,41.31138],[-8.21918,41.30975],[-8.21888,41.30664],[-8.2221,41.30319],[-8.22763,41.30277],[-8.24247,41.30935],[-8.24529,41.31138],[-8.2474,41.3156],[-8.24876,41.31445],[-8.25576,41.31494],[-8.2552,41.31342],[-8.25584,41.3127],[-8.25446,41.31169],[-8.25856,41.31185],[-8.2626,41.31041],[-8.26583,41.31269],[-8.27718,41.31434],[-8.27861,41.31556],[-8.28,41.32061],[-8.27956,41.3232],[-8.27014,41.32739],[-8.26659,41.33041]]]}},{"type":"Feature","properties":{"num":16,"name":"Amarante"},"geometry":{"type":"Polygon","coordinates":[[[-8.00494,41.20898],[-8.02951,41.19954],[-8.0347,41.19347],[-8.04128,41.18944],[-8.04339,41.19895],[-8.04779,41.20265],[-8.05294,41.20475],[-8.05971,41.20971],[-8.06196,41.2104],[-8.06739,41.21585],[-8.07204,41.22292],[-8.08038,41.22584],[-8.1172,41.22565],[-8.11975,41.22383],[-8.12465,41.22396],[-8.1256,41.22297],[-8.12375,41.21878],[-8.12624,41.21449],[-8.12982,41.2206],[-8.13225,41.21904],[-8.1353,41.21901],[-8.13685,41.21933],[-8.13958,41.22214],[-8.13998,41.22371],[-8.13532,41.22826],[-8.13595,41.22871],[-8.13865,41.22788],[-8.14054,41.22543],[-8.1454,41.22496],[-8.14779,41.22358],[-8.14933,41.22579],[-8.15231,41.22462],[-8.15527,41.22774],[-8.15732,41.22792],[-8.16308,41.22485],[-8.16166,41.2225],[-8.16246,41.22201],[-8.16555,41.22408],[-8.16365,41.22737],[-8.16131,41.22903],[-8.16072,41.23201],[-8.15773,41.23383],[-8.1565,41.23342],[-8.15314,41.23491],[-8.14984,41.23877],[-8.14856,41.24285],[-8.14618,41.24368],[-8.14209,41.24894],[-8.13523,41.24914],[-8.13218,41.25186],[-8.13462,41.2543],[-8.13776,41.25499],[-8.13684,41.25538],[-8.13707,41.25904],[-8.14459,41.25617],[-8.14866,41.25709],[-8.14965,41.25526],[-8.15161,41.25463],[-8.15254,41.25169],[-8.1563,41.24868],[-8.16224,41.24593],[-8.16808,41.23927],[-8.17421,41.23629],[-8.17351,41.23387],[-8.17619,41.23321],[-8.17946,41.23528],[-8.19267,41.23826],[-8.18961,41.24096],[-8.19362,41.24269],[-8.20189,41.24104],[-8.20491,41.24305],[-8.20426,41.2441],[-8.20677,41.24579],[-8.21378,41.2445],[-8.21575,41.24531],[-8.21631,41.25036],[-8.21372,41.25556],[-8.21127,41.25808],[-8.21225,41.2583],[-8.21131,41.26473],[-8.20865,41.26691],[-8.20829,41.27144],[-8.20975,41.27646],[-8.20734,41.2782],[-8.2028,41.28439],[-8.19938,41.28637],[-8.19667,41.28667],[-8.1921,41.29023],[-8.19151,41.29113],[-8.19315,41.2933],[-8.19294,41.29445],[-8.19194,41.29441],[-8.18498,41.30239],[-8.17952,41.30249],[-8.17162,41.31117],[-8.16378,41.31436],[-8.15604,41.31359],[-8.15014,41.31179],[-8.14661,41.31344],[-8.14606,41.3149],[-8.14677,41.31596],[-8.14517,41.31715],[-8.13349,41.3146],[-8.12999,41.31527],[-8.12838,41.31719],[-8.12192,41.31862],[-8.1208,41.32481],[-8.11545,41.32821],[-8.11676,41.32974],[-8.11103,41.32849],[-8.11139,41.32971],[-8.10962,41.33188],[-8.11213,41.33264],[-8.11324,41.33646],[-8.1114,41.33735],[-8.11197,41.33858],[-8.11528,41.34022],[-8.11875,41.34379],[-8.11552,41.34638],[-8.10626,41.33926],[-8.10266,41.33826],[-8.09508,41.3381],[-8.09481,41.33646],[-8.09236,41.33685],[-8.09365,41.33522],[-8.0906,41.33557],[-8.09,41.33355],[-8.08828,41.33234],[-8.08979,41.33012],[-8.08651,41.32935],[-8.07941,41.33153],[-8.07799,41.33353],[-8.07821,41.33557],[-8.07711,41.33812],[-8.07004,41.34327],[-8.06537,41.34328],[-8.06563,41.3388],[-8.06328,41.33917],[-8.05768,41.33312],[-8.04899,41.3318],[-8.04759,41.32794],[-8.03817,41.31999],[-8.0358,41.31883],[-8.02731,41.31951],[-8.01999,41.32451],[-8.02276,41.32744],[-8.02234,41.32881],[-8.01282,41.33019],[-8.00867,41.33201],[-8.00797,41.33316],[-8.00887,41.33544],[-8.00612,41.33772],[-8.0043,41.34161],[-7.99706,41.34279],[-7.98872,41.34723],[-7.9882,41.34893],[-7.98915,41.35116],[-7.98762,41.35624],[-7.98174,41.36038],[-7.98072,41.36316],[-7.98107,41.36637],[-7.97753,41.37027],[-7.97593,41.37438],[-7.97417,41.3752],[-7.96986,41.3723],[-7.97105,41.36752],[-7.97065,41.36589],[-7.97181,41.36406],[-7.97347,41.36389],[-7.97258,41.36032],[-7.95945,41.35844],[-7.9566,41.359],[-7.95415,41.35632],[-7.94734,41.35263],[-7.94783,41.34889],[-7.95026,41.34777],[-7.94997,41.3456],[-7.9528,41.346],[-7.95343,41.34421],[-7.95645,41.34289],[-7.95878,41.34321],[-7.96089,41.33621],[-7.96554,41.33274],[-7.96302,41.33102],[-7.96395,41.32957],[-7.96003,41.32735],[-7.9582,41.32436],[-7.95578,41.32316],[-7.9484,41.32355],[-7.94183,41.32157],[-7.93982,41.32218],[-7.93335,41.31978],[-7.93234,41.31827],[-7.92927,41.31803],[-7.92831,41.31564],[-7.92439,41.31437],[-7.92222,41.31188],[-7.91764,41.30949],[-7.91689,41.30854],[-7.91788,41.30837],[-7.91742,41.30722],[-7.91482,41.30719],[-7.91377,41.30552],[-7.90764,41.30267],[-7.91539,41.29763],[-7.91749,41.29241],[-7.92137,41.29032],[-7.91859,41.28403],[-7.91463,41.28178],[-7.91413,41.28052],[-7.9151,41.27429],[-7.91621,41.27262],[-7.90455,41.27193],[-7.89639,41.26754],[-7.89682,41.26358],[-7.89405,41.26006],[-7.89582,41.25548],[-7.89494,41.24992],[-7.89614,41.24865],[-7.89584,41.24629],[-7.90011,41.24338],[-7.90048,41.24138],[-7.90338,41.23881],[-7.91023,41.23507],[-7.91538,41.23371],[-7.92107,41.22923],[-7.92174,41.2236],[-7.92346,41.22169],[-7.92622,41.22134],[-7.92993,41.21809],[-7.93431,41.21103],[-7.93759,41.20971],[-7.93764,41.20833],[-7.94038,41.20596],[-7.94402,41.19741],[-7.95664,41.19479],[-7.96111,41.19695],[-7.96386,41.19723],[-7.96583,41.19515],[-7.9701,41.19709],[-7.97223,41.20051],[-7.97418,41.20103],[-7.97661,41.20403],[-7.97905,41.20383],[-7.97797,41.20482],[-7.9821,41.20596],[-7.97405,41.21297],[-7.97754,41.2157],[-7.9805,41.21663],[-7.98216,41.2185],[-7.98634,41.2202],[-7.98895,41.21628],[-7.99563,41.21207],[-7.9957,41.21019],[-7.99907,41.20696],[-8.00153,41.20593],[-8.00494,41.20898]]]}},{"type":"Feature","properties":{"num":17,"name":"Marco de Canaveses"},"geometry":{"type":"Polygon","coordinates":[[[-8.05891,41.18031],[-8.05848,41.16659],[-8.06222,41.16385],[-8.06189,41.1618],[-8.06645,41.15748],[-8.07284,41.15598],[-8.07222,41.15524],[-8.07288,41.15436],[-8.08281,41.14731],[-8.0961,41.14151],[-8.09907,41.14167],[-8.111,41.13477],[-8.11229,41.1354],[-8.11366,41.13446],[-8.11297,41.13314],[-8.11547,41.12998],[-8.11485,41.12849],[-8.10651,41.12472],[-8.10511,41.12138],[-8.10648,41.12002],[-8.10425,41.11972],[-8.10475,41.11858],[-8.10323,41.11687],[-8.1035,41.11423],[-8.10113,41.11105],[-8.10208,41.10976],[-8.10172,41.10865],[-8.09999,41.10844],[-8.09703,41.1047],[-8.09694,41.10074],[-8.10344,41.09916],[-8.11298,41.09495],[-8.11587,41.09015],[-8.11792,41.08871],[-8.12727,41.08763],[-8.13551,41.08381],[-8.14689,41.08416],[-8.16089,41.08944],[-8.17285,41.08816],[-8.18959,41.09346],[-8.20455,41.09409],[-8.2117,41.09122],[-8.21724,41.0833],[-8.22175,41.07935],[-8.22439,41.07848],[-8.22984,41.0792],[-8.23415,41.07858],[-8.23643,41.07741],[-8.2411,41.07192],[-8.24805,41.06887],[-8.26011,41.07024],[-8.2654,41.0648],[-8.26862,41.06418],[-8.27993,41.0674],[-8.28273,41.0704],[-8.28446,41.07582],[-8.28654,41.07842],[-8.28999,41.08002],[-8.29296,41.08015],[-8.29254,41.0829],[-8.29027,41.08621],[-8.28129,41.09422],[-8.25851,41.09751],[-8.25214,41.10092],[-8.24806,41.10992],[-8.22676,41.12916],[-8.22673,41.13093],[-8.23109,41.13267],[-8.23001,41.13613],[-8.23077,41.14165],[-8.22963,41.14347],[-8.22702,41.14496],[-8.21554,41.14752],[-8.21041,41.15166],[-8.20385,41.15189],[-8.19886,41.15732],[-8.19459,41.16032],[-8.19145,41.16575],[-8.1947,41.17031],[-8.19769,41.17204],[-8.20327,41.16777],[-8.20693,41.16768],[-8.20893,41.16866],[-8.2109,41.17023],[-8.20882,41.17669],[-8.20968,41.17776],[-8.22676,41.18278],[-8.23424,41.18792],[-8.23383,41.19023],[-8.2365,41.1944],[-8.23567,41.1971],[-8.23247,41.19981],[-8.23212,41.20244],[-8.23055,41.20411],[-8.23142,41.20531],[-8.22614,41.20784],[-8.21778,41.21509],[-8.21482,41.21499],[-8.20678,41.21848],[-8.20009,41.21759],[-8.19195,41.21804],[-8.19236,41.22022],[-8.19026,41.22121],[-8.18744,41.22007],[-8.18472,41.2171],[-8.17995,41.21577],[-8.17664,41.21605],[-8.17097,41.21949],[-8.16907,41.22126],[-8.16965,41.22306],[-8.17138,41.22393],[-8.16896,41.22591],[-8.17072,41.22724],[-8.17254,41.22719],[-8.17325,41.23144],[-8.17247,41.23245],[-8.17384,41.234],[-8.17421,41.23629],[-8.16808,41.23927],[-8.16224,41.24593],[-8.1563,41.24868],[-8.15254,41.25169],[-8.15161,41.25463],[-8.14965,41.25526],[-8.14866,41.25709],[-8.14459,41.25617],[-8.13707,41.25904],[-8.13684,41.25538],[-8.13776,41.25499],[-8.13462,41.2543],[-8.13218,41.25186],[-8.13523,41.24914],[-8.1425,41.24862],[-8.14618,41.24368],[-8.14856,41.24285],[-8.14984,41.23877],[-8.15314,41.23491],[-8.1565,41.23342],[-8.15773,41.23383],[-8.16072,41.23201],[-8.16131,41.22903],[-8.16365,41.22737],[-8.1653,41.22362],[-8.16205,41.22208],[-8.16308,41.22485],[-8.15732,41.22792],[-8.15527,41.22774],[-8.15231,41.22462],[-8.14933,41.22579],[-8.14779,41.22358],[-8.1454,41.22496],[-8.14054,41.22543],[-8.13865,41.22788],[-8.13595,41.22871],[-8.13532,41.22826],[-8.13998,41.22371],[-8.13958,41.22214],[-8.13685,41.21933],[-8.1353,41.21901],[-8.13225,41.21904],[-8.12982,41.2206],[-8.12624,41.21449],[-8.12375,41.21878],[-8.12527,41.22352],[-8.11975,41.22383],[-8.1172,41.22565],[-8.08038,41.22584],[-8.07204,41.22292],[-8.06739,41.21585],[-8.06196,41.2104],[-8.04686,41.20206],[-8.04253,41.19714],[-8.04128,41.18944],[-8.04662,41.18902],[-8.05472,41.18644],[-8.05699,41.18436],[-8.05891,41.18031]]]}},{"type":"Feature","properties":{"num":18,"name":"Baião"},"geometry":{"type":"Polygon","coordinates":[[[-7.89894,41.17286],[-7.89539,41.1682],[-7.89789,41.16819],[-7.89836,41.16732],[-7.89413,41.16536],[-7.89358,41.16391],[-7.88943,41.16321],[-7.89158,41.16144],[-7.89293,41.1618],[-7.89285,41.15952],[-7.89648,41.15816],[-7.89798,41.15855],[-7.89855,41.15695],[-7.9037,41.15474],[-7.90013,41.15144],[-7.90217,41.14908],[-7.90119,41.14727],[-7.90886,41.14262],[-7.91243,41.13845],[-7.91292,41.13594],[-7.91441,41.13447],[-7.91244,41.13301],[-7.91234,41.1304],[-7.91333,41.13006],[-7.91246,41.13002],[-7.91315,41.12965],[-7.91094,41.12707],[-7.91242,41.12418],[-7.91186,41.11989],[-7.92126,41.11996],[-7.9307,41.11814],[-7.94421,41.12255],[-7.95165,41.1227],[-7.95403,41.12147],[-7.96209,41.11364],[-7.96917,41.11582],[-7.97849,41.11161],[-7.99033,41.10971],[-7.9987,41.10566],[-8.01416,41.10432],[-8.02191,41.0986],[-8.02588,41.09682],[-8.0365,41.09566],[-8.05276,41.08968],[-8.05928,41.09002],[-8.06823,41.09281],[-8.08273,41.09174],[-8.09026,41.09883],[-8.0942,41.10072],[-8.09694,41.10074],[-8.09703,41.1047],[-8.09999,41.10844],[-8.10172,41.10865],[-8.10208,41.10976],[-8.10113,41.11105],[-8.1035,41.11423],[-8.10323,41.11687],[-8.10475,41.11858],[-8.10425,41.11972],[-8.10648,41.12002],[-8.10511,41.12138],[-8.10651,41.12472],[-8.11464,41.12827],[-8.11547,41.12998],[-8.11301,41.13294],[-8.11382,41.13381],[-8.11277,41.13534],[-8.111,41.13477],[-8.09907,41.14167],[-8.0961,41.14151],[-8.08281,41.14731],[-8.07288,41.15436],[-8.07222,41.15524],[-8.07284,41.15598],[-8.06645,41.15748],[-8.06189,41.1618],[-8.06222,41.16385],[-8.05848,41.16659],[-8.05925,41.1788],[-8.05604,41.18543],[-8.04662,41.18902],[-8.0391,41.19025],[-8.0347,41.19347],[-8.03025,41.19903],[-8.02691,41.20104],[-8.01903,41.20322],[-8.00494,41.20898],[-8.00153,41.20593],[-7.99907,41.20696],[-7.9957,41.21019],[-7.99563,41.21207],[-7.98895,41.21628],[-7.98634,41.2202],[-7.98216,41.2185],[-7.9805,41.21663],[-7.97754,41.2157],[-7.97405,41.21297],[-7.9821,41.20596],[-7.97797,41.20482],[-7.97905,41.20383],[-7.97661,41.20403],[-7.97418,41.20103],[-7.97223,41.20051],[-7.9701,41.19709],[-7.96583,41.19515],[-7.96386,41.19723],[-7.96111,41.19695],[-7.95664,41.19479],[-7.94402,41.19741],[-7.94038,41.20596],[-7.93764,41.20833],[-7.93759,41.20971],[-7.93431,41.21103],[-7.92993,41.21809],[-7.92622,41.22134],[-7.92346,41.22169],[-7.92174,41.2236],[-7.92107,41.22923],[-7.91538,41.23371],[-7.91023,41.23507],[-7.90338,41.23881],[-7.90048,41.24138],[-7.90011,41.24338],[-7.89584,41.24629],[-7.89589,41.24898],[-7.88697,41.24847],[-7.88358,41.2478],[-7.87558,41.24205],[-7.87787,41.24088],[-7.87959,41.23643],[-7.87977,41.23426],[-7.87852,41.23263],[-7.88178,41.23064],[-7.88358,41.2283],[-7.88828,41.2178],[-7.89177,41.2137],[-7.89208,41.21066],[-7.89409,41.20924],[-7.8933,41.20603],[-7.89034,41.20244],[-7.88994,41.19576],[-7.88797,41.18909],[-7.89013,41.18671],[-7.8904,41.18269],[-7.89724,41.17469],[-7.89848,41.17458],[-7.89894,41.17286]]]}}]}