{"type":"FeatureCollection","features":[{"type":"Feature","properties":{"kind":"nuts3","code":"11A","he":"האזור המטרופוליטני של פורטו","en":"Área Metropolitana do Porto","colour":"#20B2AA","nums":[1,2,3,4,5,6,7,8,9,10,11],"part":"solo"},"geometry":{"type":"MultiLineString","coordinates":[[[-8.61081,40.97556],[-8.6107,40.97331],[-8.61413,40.97091],[-8.61674,40.97002],[-8.61918,40.96971],[-8.62175,40.96821],[-8.6244,40.96791],[-8.62606,40.96827],[-8.63059,40.96679],[-8.65312,40.96478],[-8.65201,40.96669],[-8.65182,40.96838],[-8.6507,40.97079],[-8.65022,40.97329],[-8.6528,40.97392],[-8.65134,40.97383],[-8.65072,40.97473],[-8.64935,40.9806],[-8.64951,40.98134],[-8.65165,40.98161],[-8.65207,40.98189],[-8.6497,40.98163],[-8.64904,40.98263],[-8.64828,40.98493],[-8.64777,40.98883],[-8.65,40.9895],[-8.64826,40.98937],[-8.64726,40.99068],[-8.64636,40.99578],[-8.64648,40.99612],[-8.64703,40.99617],[-8.64703,40.99709],[-8.64779,40.99831],[-8.64841,40.99853],[-8.64972,40.99797],[-8.65123,40.99846],[-8.65087,40.99863],[-8.6496,40.99838],[-8.64795,40.99901],[-8.6469,41.00168],[-8.64661,41.00392],[-8.64713,41.0041],[-8.64662,41.00416],[-8.64633,41.00499],[-8.64637,41.00773],[-8.64769,41.0093],[-8.64944,41.00835],[-8.64978,41.00851],[-8.64887,41.00939],[-8.64688,41.01],[-8.64573,41.01581],[-8.64486,41.01608],[-8.64418,41.01782],[-8.6448,41.02272],[-8.64578,41.02472],[-8.64532,41.0252],[-8.64461,41.02535],[-8.64585,41.0251],[-8.64564,41.02555],[-8.64662,41.02659],[-8.64671,41.02974],[-8.6473,41.03036],[-8.64688,41.0321],[-8.6467,41.03147],[-8.64675,41.03255],[-8.64915,41.03589],[-8.64904,41.03658],[-8.64933,41.03662],[-8.64917,41.03705],[-8.64968,41.03837],[-8.6514,41.04111],[-8.6515,41.04265],[-8.65245,41.04354],[-8.65368,41.04693],[-8.6545,41.04751],[-8.65447,41.04823],[-8.65538,41.049],[-8.656,41.0491],[-8.65676,41.04864],[-8.65668,41.04728],[-8.65708,41.04925],[-8.6562,41.05292],[-8.65663,41.05655],[-8.65736,41.05808],[-8.65735,41.06019],[-8.65677,41.06118],[-8.65782,41.06156],[-8.6582,41.06273],[-8.65756,41.06263],[-8.65816,41.06419],[-8.65782,41.06401],[-8.65733,41.0656],[-8.65817,41.0675],[-8.65739,41.06784],[-8.65862,41.06817],[-8.65945,41.06907],[-8.65896,41.06905],[-8.65839,41.07069],[-8.65891,41.07343],[-8.65789,41.08184],[-8.65755,41.08787],[-8.65798,41.08871],[-8.6575,41.08979],[-8.65754,41.09071],[-8.65853,41.093],[-8.65926,41.09379],[-8.65926,41.0951],[-8.6596,41.09562],[-8.66025,41.09555],[-8.65985,41.09817],[-8.66134,41.09909],[-8.66144,41.09964],[-8.66272,41.10072],[-8.66273,41.10189],[-8.66315,41.10237],[-8.66281,41.10259],[-8.66302,41.10308],[-8.66251,41.10421],[-8.66363,41.10458],[-8.66419,41.10522],[-8.66552,41.1059],[-8.66423,41.10587],[-8.66384,41.10636],[-8.66402,41.10719],[-8.66504,41.1075],[-8.66564,41.10814],[-8.66423,41.11147],[-8.66405,41.1153],[-8.66345,41.1169],[-8.6646,41.11795],[-8.66417,41.11831],[-8.66504,41.11899],[-8.66509,41.11958],[-8.66608,41.12058],[-8.66738,41.12081],[-8.66761,41.12115],[-8.66805,41.12106],[-8.66859,41.12142],[-8.66832,41.1234],[-8.66933,41.12399],[-8.66908,41.12385],[-8.66912,41.12418],[-8.66859,41.12403],[-8.66826,41.1243],[-8.66785,41.12574],[-8.66855,41.12685],[-8.66797,41.12698],[-8.66799,41.1275],[-8.66902,41.12951],[-8.66951,41.12975],[-8.67005,41.12958],[-8.66927,41.1301],[-8.6699,41.13025],[-8.67048,41.13108],[-8.6703,41.13151],[-8.67093,41.13137],[-8.67076,41.13376],[-8.67125,41.13458],[-8.6699,41.13536],[-8.67005,41.13584],[-8.66945,41.13601],[-8.6694,41.13684],[-8.66896,41.13707],[-8.66825,41.13696],[-8.6677,41.13754],[-8.66731,41.14047],[-8.66803,41.14195],[-8.67039,41.14332],[-8.67244,41.14262],[-8.67261,41.14219],[-8.67139,41.14168],[-8.67163,41.14148],[-8.67446,41.14313],[-8.67551,41.14453],[-8.67281,41.14232],[-8.67214,41.14307],[-8.67075,41.14347],[-8.67463,41.14706],[-8.67661,41.14656],[-8.67905,41.14498],[-8.67927,41.14513],[-8.67648,41.1468],[-8.67464,41.14734],[-8.6749,41.14772],[-8.67734,41.14667],[-8.67498,41.1478],[-8.67643,41.15006],[-8.67781,41.15121],[-8.67851,41.15258],[-8.68212,41.15667],[-8.68332,41.15761],[-8.68421,41.15741],[-8.68357,41.15776],[-8.68448,41.15858],[-8.68558,41.15767],[-8.68503,41.15829],[-8.6852,41.15896],[-8.68595,41.15925],[-8.68649,41.16015],[-8.68613,41.16061],[-8.68625,41.16285],[-8.68727,41.16335],[-8.68789,41.16442],[-8.68822,41.16431],[-8.68829,41.16522],[-8.6891,41.1661],[-8.6898,41.16609],[-8.6896,41.16648],[-8.68994,41.16639],[-8.68987,41.16668],[-8.69052,41.16675],[-8.69017,41.16764],[-8.6907,41.168],[-8.69026,41.16823],[-8.69108,41.1683],[-8.69096,41.16863],[-8.69129,41.16875],[-8.69061,41.16929],[-8.69042,41.16903],[-8.68978,41.16915],[-8.68989,41.16954],[-8.68945,41.16937],[-8.68878,41.17],[-8.68911,41.17177],[-8.68989,41.17329],[-8.69076,41.17373],[-8.69108,41.17471],[-8.69466,41.17754],[-8.69739,41.17896],[-8.70198,41.17658],[-8.70414,41.17672],[-8.70544,41.17758],[-8.70566,41.17799],[-8.70394,41.17694],[-8.70201,41.17681],[-8.69749,41.17942],[-8.6977,41.17961],[-8.69857,41.17919],[-8.70616,41.18628],[-8.70881,41.18522],[-8.70984,41.18429],[-8.7098,41.18345],[-8.71,41.18381],[-8.71048,41.18198],[-8.71009,41.18237],[-8.71026,41.18174],[-8.71053,41.18195],[-8.71079,41.18094],[-8.71042,41.18012],[-8.70955,41.17971],[-8.70838,41.17831],[-8.70911,41.1787],[-8.71023,41.17857],[-8.7088,41.17501],[-8.70838,41.17493],[-8.70839,41.17545],[-8.70808,41.17469],[-8.70862,41.17482],[-8.70773,41.17272],[-8.70815,41.17256],[-8.71212,41.18158],[-8.71214,41.18313],[-8.71131,41.18431],[-8.70678,41.18695],[-8.7071,41.18756],[-8.70683,41.18992],[-8.70727,41.19043],[-8.70701,41.1911],[-8.70751,41.19151],[-8.70705,41.19182],[-8.70758,41.1925],[-8.7081,41.19248],[-8.70848,41.19281],[-8.708,41.19308],[-8.70803,41.19348],[-8.70873,41.19311],[-8.70897,41.19325],[-8.70918,41.19375],[-8.70882,41.19433],[-8.70913,41.19483],[-8.70984,41.19482],[-8.71026,41.19516],[-8.71032,41.19627],[-8.71123,41.19658],[-8.71115,41.1968],[-8.71209,41.19635],[-8.71236,41.19671],[-8.71248,41.19695],[-8.71197,41.19704],[-8.71237,41.19733],[-8.71193,41.19744],[-8.7115,41.19837],[-8.71275,41.20018],[-8.71341,41.20028],[-8.71389,41.20165],[-8.71427,41.20178],[-8.71411,41.20201],[-8.71472,41.20191],[-8.71558,41.20228],[-8.71561,41.20268],[-8.71624,41.20282],[-8.71609,41.20371],[-8.7152,41.20416],[-8.71656,41.2043],[-8.71623,41.2048],[-8.71722,41.20513],[-8.71709,41.20708],[-8.71587,41.20978],[-8.71575,41.21294],[-8.71641,41.21391],[-8.71595,41.21416],[-8.71596,41.21495],[-8.7167,41.21519],[-8.71619,41.21598],[-8.7165,41.21622],[-8.71617,41.21733],[-8.71684,41.21774],[-8.71633,41.21834],[-8.71595,41.22003],[-8.71627,41.2203],[-8.71604,41.22052],[-8.71638,41.22184],[-8.71671,41.22174],[-8.71705,41.22209],[-8.7167,41.22301],[-8.71738,41.22328],[-8.71798,41.22413],[-8.71724,41.22402],[-8.71801,41.22486],[-8.71735,41.22519],[-8.71793,41.22506],[-8.71815,41.22552],[-8.71749,41.22594],[-8.71779,41.22613],[-8.71872,41.22581],[-8.71943,41.22646],[-8.71958,41.22617],[-8.72048,41.22644],[-8.72042,41.22672],[-8.72247,41.22832],[-8.72208,41.22847],[-8.72249,41.22874],[-8.72216,41.22879],[-8.72295,41.22996],[-8.7224,41.23013],[-8.72207,41.23106],[-8.723,41.23257],[-8.72402,41.23268],[-8.72357,41.23289],[-8.72395,41.2334],[-8.72367,41.23432],[-8.724,41.23521],[-8.72462,41.23547],[-8.72412,41.23602],[-8.72453,41.23608],[-8.72427,41.23652],[-8.72461,41.23655],[-8.72454,41.23804],[-8.72579,41.23936],[-8.72625,41.2394],[-8.72689,41.24046],[-8.72751,41.24061],[-8.72745,41.24136],[-8.72916,41.24264],[-8.72738,41.24358],[-8.72661,41.24493],[-8.72567,41.2482],[-8.72574,41.24921],[-8.72615,41.24946],[-8.72521,41.25021],[-8.72464,41.25166],[-8.72477,41.25391],[-8.72416,41.25712],[-8.72495,41.26067],[-8.72636,41.26152],[-8.7279,41.26426],[-8.72885,41.26495],[-8.72818,41.26604],[-8.72763,41.26836],[-8.72809,41.26991],[-8.72787,41.27021],[-8.72886,41.27034],[-8.7293,41.27105],[-8.72929,41.27172],[-8.72986,41.27253],[-8.72972,41.27457],[-8.73086,41.27492],[-8.72969,41.27588],[-8.73019,41.27778],[-8.72971,41.27892],[-8.73012,41.27951],[-8.73065,41.27929],[-8.73133,41.28125],[-8.7318,41.28133],[-8.73202,41.28176],[-8.73189,41.28224],[-8.73235,41.28221],[-8.73243,41.28625],[-8.73365,41.29091],[-8.73462,41.2925],[-8.73542,41.29272],[-8.73717,41.29584],[-8.73713,41.29668],[-8.73771,41.29713],[-8.73816,41.29823],[-8.73821,41.3015],[-8.7388,41.30223],[-8.73876,41.30358],[-8.73984,41.30615],[-8.73996,41.30782],[-8.74083,41.3094],[-8.74249,41.31007],[-8.7414,41.3109],[-8.7411,41.31189],[-8.74053,41.31771],[-8.73939,41.32326],[-8.73931,41.32813],[-8.74025,41.33423],[-8.74189,41.33718],[-8.74366,41.33855],[-8.74606,41.33968],[-8.74753,41.3387],[-8.74638,41.33973],[-8.74935,41.34001],[-8.74925,41.33746],[-8.74985,41.3366],[-8.74948,41.33747],[-8.74957,41.33917],[-8.7503,41.34024],[-8.75105,41.34089],[-8.7518,41.34056],[-8.75301,41.341],[-8.75374,41.34235],[-8.7547,41.34235],[-8.7554,41.34275],[-8.75492,41.34315],[-8.75546,41.34346],[-8.75492,41.34388],[-8.7542,41.34742],[-8.75443,41.34801],[-8.75521,41.34819],[-8.75437,41.34857],[-8.75447,41.35049],[-8.7551,41.35123],[-8.75571,41.35111],[-8.75498,41.35201],[-8.75533,41.35528],[-8.75749,41.35919],[-8.75949,41.36117],[-8.76089,41.36188],[-8.76231,41.36118],[-8.761,41.36206],[-8.76116,41.36295],[-8.76169,41.36261],[-8.76118,41.36326],[-8.76141,41.36405],[-8.76101,41.36347],[-8.76108,41.36454],[-8.76206,41.36575],[-8.76277,41.36572],[-8.76284,41.36536],[-8.7636,41.36686],[-8.76288,41.36601],[-8.76195,41.36627],[-8.7617,41.36789],[-8.76217,41.36816],[-8.76255,41.36799],[-8.76242,41.36824],[-8.76597,41.36953],[-8.76717,41.37058],[-8.76796,41.37202],[-8.76445,41.372],[-8.76332,41.37242],[-8.76674,41.37373],[-8.76862,41.37393],[-8.77002,41.37237],[-8.77104,41.37041],[-8.77195,41.37059],[-8.76927,41.37415],[-8.76873,41.37576],[-8.76972,41.38003],[-8.77105,41.3813],[-8.77215,41.38441],[-8.77361,41.38533],[-8.77456,41.38544],[-8.77509,41.3861],[-8.77543,41.38744],[-8.77501,41.38982],[-8.77533,41.39184],[-8.77654,41.39267],[-8.77767,41.39405],[-8.77886,41.39405],[-8.77834,41.39464],[-8.77873,41.39511],[-8.78073,41.39522],[-8.78082,41.39573],[-8.77938,41.39875],[-8.77951,41.39955],[-8.77888,41.40075],[-8.77943,41.40284],[-8.781,41.40596],[-8.78169,41.40614],[-8.78301,41.40753],[-8.78352,41.40757],[-8.78308,41.40792],[-8.78309,41.4086],[-8.78378,41.40937],[-8.78661,41.41183],[-8.78798,41.41195],[-8.78807,41.41243],[-8.7876,41.4131],[-8.78815,41.41341],[-8.78813,41.41482],[-8.78906,41.41592],[-8.78891,41.41668],[-8.78698,41.41843],[-8.78605,41.42031],[-8.78528,41.42434],[-8.78433,41.42665],[-8.78468,41.42867],[-8.78467,41.43294],[-8.78028,41.4417],[-8.7798,41.4434],[-8.77849,41.45068],[-8.77869,41.45655],[-8.7774,41.46049],[-8.77604,41.46815],[-8.77601,41.47025],[-8.77643,41.47197],[-8.77394,41.47053],[-8.76879,41.46875],[-8.76407,41.46801],[-8.75968,41.4679],[-8.75819,41.46694],[-8.75259,41.46614],[-8.75019,41.46636],[-8.74574,41.46864],[-8.74576,41.46748],[-8.74394,41.46672],[-8.7402,41.46366],[-8.73949,41.46056],[-8.73607,41.45852],[-8.73395,41.4556],[-8.73043,41.45516],[-8.72952,41.45361],[-8.7266,41.45317],[-8.72323,41.45368],[-8.7198,41.45527],[-8.71258,41.45461],[-8.70935,41.45353],[-8.70844,41.45228],[-8.70883,41.4507],[-8.70857,41.45024],[-8.70585,41.44834],[-8.70587,41.44738],[-8.70495,41.44623],[-8.70258,41.44408],[-8.7017,41.44245],[-8.70076,41.44216],[-8.68319,41.44916],[-8.66993,41.4453],[-8.66808,41.4446],[-8.66664,41.44347],[-8.6651,41.44306],[-8.66242,41.4415],[-8.6574,41.4363],[-8.65413,41.43143],[-8.65273,41.42826],[-8.65104,41.42577],[-8.65069,41.4247],[-8.65111,41.42356],[-8.65014,41.41969],[-8.64607,41.41836],[-8.64029,41.41764],[-8.63859,41.41824],[-8.63735,41.41808],[-8.63466,41.41866],[-8.63375,41.41753],[-8.63156,41.4162],[-8.62935,41.41405],[-8.62445,41.41434],[-8.62272,41.41487],[-8.62284,41.41123],[-8.62238,41.40975],[-8.61992,41.4102],[-8.61775,41.40995],[-8.61578,41.41051],[-8.61431,41.40937],[-8.61346,41.40817],[-8.60523,41.41266],[-8.59857,41.40406],[-8.59791,41.40266],[-8.59582,41.40117],[-8.59583,41.40072],[-8.59315,41.40059],[-8.59144,41.40002],[-8.59065,41.40008],[-8.59233,41.39518],[-8.59173,41.39394],[-8.59378,41.39354],[-8.59503,41.39371],[-8.59692,41.39352],[-8.5997,41.3919],[-8.60052,41.3921],[-8.60869,41.39075],[-8.61022,41.39128],[-8.6101,41.38878],[-8.61163,41.38853],[-8.61396,41.38754],[-8.61702,41.38721],[-8.61912,41.38573],[-8.62278,41.38407],[-8.62332,41.38274],[-8.62073,41.37927],[-8.62136,41.37628],[-8.6183,41.37249],[-8.61863,41.37208],[-8.61816,41.37155],[-8.61543,41.36455],[-8.61604,41.36241],[-8.6152,41.35647],[-8.61627,41.35476],[-8.61485,41.35433],[-8.61375,41.35327],[-8.61281,41.35131],[-8.61118,41.3469],[-8.61062,41.34111],[-8.60462,41.33854],[-8.6034,41.33871],[-8.60291,41.33951],[-8.60252,41.34176],[-8.60265,41.34535],[-8.60152,41.34595],[-8.59784,41.34692],[-8.59218,41.34604],[-8.58577,41.34655],[-8.58174,41.34652],[-8.57964,41.34699],[-8.57544,41.34562],[-8.56873,41.34635],[-8.5651,41.34596],[-8.56071,41.34447],[-8.55896,41.34433],[-8.55727,41.34477],[-8.55324,41.34669],[-8.55189,41.34765],[-8.55018,41.34786],[-8.54593,41.3474],[-8.54392,41.34683],[-8.54163,41.34553],[-8.53963,41.34377],[-8.5385,41.34319],[-8.53723,41.343],[-8.53584,41.34323],[-8.53314,41.34426],[-8.5289,41.34665],[-8.5246,41.34657],[-8.51838,41.34568],[-8.51618,41.34632],[-8.5142,41.34945],[-8.51576,41.35264],[-8.51733,41.35402],[-8.51628,41.35608],[-8.51169,41.35905],[-8.51085,41.36011],[-8.51032,41.35995],[-8.50957,41.36035],[-8.50845,41.36227],[-8.50751,41.36287],[-8.50784,41.36309],[-8.50765,41.36377],[-8.50646,41.36286],[-8.50286,41.36351],[-8.50262,41.36465],[-8.50291,41.36534],[-8.50248,41.36601],[-8.50242,41.36709],[-8.50145,41.36833],[-8.49915,41.36859],[-8.49815,41.36827],[-8.49594,41.36822],[-8.49531,41.36872],[-8.49336,41.36904],[-8.49259,41.3697],[-8.49109,41.37011],[-8.48687,41.36921],[-8.4848,41.36839],[-8.48325,41.36846],[-8.48263,41.36873],[-8.48209,41.3698],[-8.47787,41.37069],[-8.47605,41.37217],[-8.47519,41.37244],[-8.4743,41.372],[-8.47413,41.37235],[-8.47122,41.37286],[-8.46897,41.37116],[-8.46822,41.37116],[-8.46448,41.37265],[-8.46369,41.37382],[-8.45565,41.37557],[-8.45513,41.37563],[-8.45327,41.37474],[-8.45228,41.37562],[-8.45168,41.37458],[-8.45108,41.37481],[-8.44934,41.37396],[-8.44931,41.37186],[-8.44983,41.37132],[-8.44894,41.36978],[-8.44728,41.36844],[-8.44597,41.36821],[-8.44478,41.36862],[-8.44276,41.36795],[-8.44179,41.36715],[-8.44251,41.36595],[-8.44191,41.3648],[-8.44064,41.3635],[-8.44091,41.36293],[-8.43968,41.36308],[-8.43789,41.36271],[-8.43636,41.3633],[-8.43395,41.36347],[-8.43151,41.36296],[-8.42833,41.36439],[-8.42696,41.36546],[-8.42436,41.36632],[-8.42272,41.36587],[-8.42231,41.36684],[-8.4209,41.36759],[-8.42018,41.36857],[-8.41778,41.36942],[-8.41581,41.37106],[-8.41537,41.37284],[-8.4142,41.37329],[-8.41188,41.37591],[-8.40932,41.37637],[-8.40772,41.37772],[-8.40629,41.37846],[-8.40613,41.3787],[-8.40698,41.37973],[-8.40656,41.38098],[-8.4048,41.38181],[-8.40406,41.38352],[-8.40235,41.38419],[-8.39943,41.38429],[-8.38666,41.38141],[-8.38857,41.38127],[-8.38892,41.37922],[-8.38969,41.37906],[-8.38989,41.37718],[-8.39021,41.37725],[-8.39067,41.37661],[-8.39191,41.37602],[-8.39174,41.37541],[-8.39255,41.37541],[-8.3923,41.37424],[-8.3931,41.37316],[-8.39232,41.37179],[-8.39352,41.37148],[-8.39388,41.3709],[-8.39487,41.37084],[-8.39483,41.37062],[-8.39413,41.37058],[-8.39422,41.36955],[-8.39507,41.36911],[-8.39548,41.36918],[-8.39564,41.36791],[-8.39528,41.36667],[-8.39477,41.36665],[-8.39463,41.36616],[-8.39493,41.36614],[-8.39488,41.36524],[-8.3952,41.36525],[-8.39485,41.36468],[-8.39521,41.36451],[-8.39528,41.36375],[-8.39496,41.36316],[-8.39432,41.36335],[-8.3937,41.36199],[-8.39227,41.36279],[-8.39024,41.36326],[-8.38866,41.36407],[-8.38779,41.36403],[-8.38554,41.36474],[-8.38399,41.36478],[-8.38282,41.36721],[-8.38143,41.36796],[-8.37877,41.36827],[-8.37656,41.36623],[-8.37685,41.36439],[-8.37559,41.36235],[-8.37419,41.36235],[-8.37007,41.36324],[-8.36927,41.36374],[-8.36716,41.36335],[-8.36521,41.36349],[-8.36139,41.36608],[-8.35916,41.36579],[-8.35747,41.36504],[-8.35586,41.36581],[-8.35113,41.36936],[-8.34928,41.36971],[-8.34519,41.37151],[-8.34444,41.37251],[-8.34401,41.37436],[-8.34268,41.37555],[-8.33942,41.37532],[-8.33561,41.37447],[-8.33399,41.3752],[-8.33131,41.37555],[-8.33083,41.3764],[-8.32992,41.37703],[-8.32875,41.37671],[-8.32609,41.37685],[-8.32557,41.37526],[-8.32559,41.37252],[-8.32617,41.37039],[-8.32679,41.36967],[-8.32671,41.36817],[-8.32756,41.36735],[-8.32809,41.36577],[-8.32707,41.36367],[-8.32387,41.36212],[-8.32298,41.36062],[-8.32302,41.35824],[-8.32234,41.35735],[-8.3212,41.35689],[-8.32094,41.35609]],[[-8.09497,40.98357],[-8.0999,40.98031],[-8.10107,40.97896],[-8.10142,40.97831],[-8.10038,40.97669],[-8.10029,40.97584],[-8.1015,40.97352],[-8.10277,40.97323],[-8.1042,40.97376],[-8.1049,40.9735],[-8.10687,40.9713],[-8.1083,40.97058],[-8.10972,40.97046],[-8.11276,40.96816],[-8.11328,40.96719],[-8.11512,40.96567],[-8.11671,40.96511],[-8.11726,40.96422],[-8.11749,40.96248],[-8.12028,40.95799],[-8.12109,40.95722],[-8.12217,40.95472],[-8.12394,40.9536],[-8.12526,40.95359],[-8.12806,40.95197],[-8.13013,40.95183],[-8.13152,40.95061],[-8.13261,40.94795],[-8.13204,40.942],[-8.13138,40.9416],[-8.13061,40.94036],[-8.13094,40.93966],[-8.13029,40.93524],[-8.12995,40.93453],[-8.12813,40.9337],[-8.12703,40.93243],[-8.12803,40.93115],[-8.12794,40.93074],[-8.12733,40.93046],[-8.12717,40.92843],[-8.12468,40.92696],[-8.1229,40.92491],[-8.12042,40.91794],[-8.12273,40.91636],[-8.12453,40.91103],[-8.12369,40.90847],[-8.12499,40.90536],[-8.12482,40.90358],[-8.12532,40.90277],[-8.1269,40.90235],[-8.12809,40.89881],[-8.12796,40.89815],[-8.12459,40.89437],[-8.1203,40.89317],[-8.11975,40.89195],[-8.11559,40.89033],[-8.11571,40.88633],[-8.11489,40.88509],[-8.11218,40.88319],[-8.11113,40.88201],[-8.11119,40.87991],[-8.11199,40.87843],[-8.11014,40.87361],[-8.10763,40.8722],[-8.10304,40.86687],[-8.10642,40.85517],[-8.10994,40.85467],[-8.1133,40.85267],[-8.11705,40.85236],[-8.12488,40.84945],[-8.12656,40.84944],[-8.12964,40.84885],[-8.13374,40.8492],[-8.13971,40.85191],[-8.14276,40.8543],[-8.14535,40.85496],[-8.14924,40.85516],[-8.15513,40.859],[-8.1592,40.86229],[-8.16594,40.86588],[-8.16744,40.86618],[-8.16841,40.86595],[-8.16948,40.86515],[-8.17096,40.86305],[-8.17184,40.86236],[-8.17645,40.85953],[-8.17795,40.85759],[-8.18464,40.85138],[-8.18877,40.84821],[-8.19051,40.84612],[-8.19885,40.847],[-8.20466,40.84793],[-8.20634,40.84853],[-8.20783,40.84932],[-8.20869,40.85066],[-8.21333,40.8536],[-8.21459,40.85478],[-8.22188,40.85758],[-8.23105,40.86468],[-8.2551,40.85585],[-8.25313,40.85293],[-8.24948,40.84951],[-8.24896,40.84851],[-8.24815,40.84469],[-8.24731,40.84319],[-8.24415,40.83985],[-8.24056,40.83269],[-8.23676,40.82749],[-8.23691,40.82539],[-8.23735,40.82321],[-8.2395,40.81817],[-8.24085,40.81569],[-8.24138,40.81554],[-8.24237,40.81415],[-8.24293,40.81231],[-8.24429,40.81145],[-8.24437,40.80916],[-8.24352,40.80823],[-8.24342,40.80726],[-8.24609,40.80592],[-8.24651,40.80483],[-8.24731,40.80417],[-8.24996,40.80341],[-8.25184,40.80393],[-8.25231,40.80207],[-8.25578,40.80024],[-8.25658,40.79944],[-8.25733,40.79755],[-8.2572,40.79666],[-8.25624,40.7956],[-8.25665,40.79497],[-8.2566,40.79367],[-8.25622,40.79288],[-8.25505,40.79219],[-8.2549,40.79172],[-8.25645,40.79006],[-8.25657,40.78842],[-8.2573,40.78807],[-8.2586,40.78802],[-8.25947,40.7871],[-8.25942,40.78658],[-8.2584,40.78627],[-8.2584,40.78562],[-8.25918,40.78532],[-8.26056,40.78569],[-8.26129,40.78557],[-8.26316,40.78327],[-8.2672,40.78128],[-8.26813,40.78054],[-8.26812,40.78006],[-8.26726,40.77914],[-8.26534,40.779],[-8.26505,40.7774],[-8.26599,40.77438],[-8.26781,40.77321],[-8.26867,40.77176],[-8.26852,40.77114],[-8.2675,40.7706],[-8.26755,40.76997],[-8.2688,40.76901],[-8.26932,40.767],[-8.27305,40.76332],[-8.27337,40.76317],[-8.27298,40.7662],[-8.27356,40.76817],[-8.27441,40.7691],[-8.27487,40.76885],[-8.27526,40.76949],[-8.27579,40.76958],[-8.27614,40.76953],[-8.27644,40.76846],[-8.27706,40.76839],[-8.28163,40.77452],[-8.28111,40.77784],[-8.28196,40.77943],[-8.28227,40.77957],[-8.28305,40.77918],[-8.28468,40.78065],[-8.28536,40.78088],[-8.28566,40.78273],[-8.28503,40.78366],[-8.28523,40.78476],[-8.29605,40.78304],[-8.29883,40.78095],[-8.30256,40.7771],[-8.30433,40.77653],[-8.30444,40.7771],[-8.30616,40.77849],[-8.30993,40.78029],[-8.31322,40.78573],[-8.31534,40.78632],[-8.31851,40.78658],[-8.32241,40.78593],[-8.32275,40.78629],[-8.325,40.78496],[-8.32924,40.77863],[-8.33358,40.77791],[-8.33708,40.77648],[-8.33748,40.77665],[-8.33838,40.7764],[-8.33939,40.77743],[-8.34542,40.78049],[-8.35766,40.78792],[-8.36336,40.7934],[-8.36738,40.79945],[-8.36738,40.79992],[-8.36901,40.79992],[-8.37154,40.79935],[-8.37354,40.79945],[-8.38371,40.79863],[-8.38409,40.79697],[-8.38607,40.79589],[-8.39093,40.79698],[-8.39179,40.79833],[-8.39474,40.7992],[-8.39356,40.79617],[-8.3943,40.79432],[-8.39881,40.78805],[-8.40063,40.78836],[-8.40615,40.78803],[-8.40721,40.78623],[-8.40708,40.78546],[-8.40865,40.78172],[-8.40708,40.77623],[-8.40837,40.7755],[-8.40807,40.77488],[-8.4091,40.77483],[-8.41021,40.77376],[-8.41136,40.77366],[-8.41267,40.77264],[-8.41361,40.77286],[-8.4146,40.77242],[-8.41523,40.7726],[-8.41512,40.77165],[-8.4158,40.77163],[-8.41611,40.77093],[-8.41584,40.77001],[-8.41542,40.76977],[-8.416,40.76938],[-8.41612,40.76837],[-8.41583,40.76809],[-8.41886,40.76816],[-8.42145,40.76941],[-8.42496,40.76993],[-8.42822,40.77161],[-8.4295,40.773],[-8.43148,40.77402],[-8.43162,40.77473],[-8.43331,40.77507],[-8.43226,40.77622],[-8.43331,40.77651],[-8.43295,40.77722],[-8.43325,40.77825],[-8.43376,40.77872],[-8.43384,40.77939],[-8.43484,40.77982],[-8.43548,40.77987],[-8.43685,40.77907],[-8.43907,40.77869],[-8.44317,40.77916],[-8.44375,40.77845],[-8.44514,40.77874],[-8.44552,40.77779],[-8.44583,40.7785],[-8.4478,40.77884],[-8.44861,40.77938],[-8.45261,40.77992],[-8.45252,40.7807],[-8.45332,40.78083],[-8.45488,40.78025],[-8.45507,40.77848],[-8.45555,40.77821],[-8.45642,40.77825],[-8.45821,40.77747],[-8.46046,40.7755],[-8.46056,40.77503],[-8.46598,40.77677],[-8.46738,40.77659],[-8.46873,40.77709],[-8.47182,40.77656],[-8.47447,40.77522],[-8.4743,40.77459],[-8.47607,40.77485],[-8.47728,40.77422],[-8.47891,40.77238],[-8.4838,40.77216],[-8.48675,40.77141],[-8.48778,40.77175],[-8.48901,40.77073],[-8.48991,40.77069],[-8.49092,40.76971],[-8.49141,40.76967],[-8.49253,40.77043],[-8.49426,40.76996],[-8.49601,40.76995],[-8.49698,40.77111],[-8.49775,40.77113],[-8.49718,40.76407],[-8.49819,40.76285],[-8.4982,40.76199],[-8.50012,40.76046],[-8.50315,40.75938],[-8.50647,40.75876],[-8.50879,40.75891],[-8.51769,40.76119],[-8.51895,40.76333],[-8.5203,40.76312],[-8.52121,40.76378],[-8.52285,40.76368],[-8.52336,40.76438],[-8.52411,40.76405],[-8.52485,40.76506],[-8.52638,40.76531],[-8.51877,40.76894],[-8.51756,40.7709],[-8.51745,40.77229],[-8.51615,40.77381],[-8.5162,40.77546],[-8.51589,40.77602],[-8.51823,40.77745],[-8.52098,40.7802],[-8.52085,40.7804],[-8.52556,40.77936],[-8.53055,40.77967],[-8.52975,40.78056],[-8.53304,40.78268],[-8.53232,40.78341],[-8.53506,40.78334],[-8.53882,40.78389],[-8.53896,40.78371],[-8.54731,40.78741],[-8.54913,40.79181],[-8.54621,40.7925],[-8.54605,40.79514],[-8.54757,40.79661],[-8.54446,40.79898],[-8.54571,40.7993],[-8.54753,40.79912],[-8.54908,40.7997],[-8.54804,40.80867],[-8.54825,40.81202],[-8.54895,40.8151],[-8.54288,40.81707],[-8.5441,40.8177],[-8.54344,40.81828],[-8.54222,40.81798],[-8.53724,40.81831],[-8.53423,40.81801],[-8.53226,40.81868],[-8.53495,40.82363],[-8.53514,40.82515],[-8.53157,40.82829],[-8.53122,40.82808],[-8.53041,40.82883],[-8.52669,40.83047],[-8.52507,40.83169],[-8.52816,40.83295],[-8.53058,40.83209],[-8.53123,40.83255],[-8.5328,40.83184],[-8.53351,40.83217],[-8.53571,40.83189],[-8.53611,40.83227],[-8.5373,40.83183],[-8.53808,40.83216],[-8.53953,40.83408],[-8.54014,40.83835],[-8.54055,40.83838],[-8.54049,40.83923],[-8.54006,40.83941],[-8.54053,40.83962],[-8.54041,40.84069],[-8.54394,40.8429],[-8.54512,40.84276],[-8.54529,40.84338],[-8.54566,40.84312],[-8.54706,40.84324],[-8.54892,40.84422],[-8.54849,40.84431],[-8.55013,40.84581],[-8.55086,40.849],[-8.54819,40.85155],[-8.54538,40.85351],[-8.53899,40.85678],[-8.53704,40.85698],[-8.53623,40.85784],[-8.53597,40.85729],[-8.5356,40.85741],[-8.5346,40.85847],[-8.53326,40.85853],[-8.5325,40.85925],[-8.53126,40.85951],[-8.531,40.85993],[-8.52992,40.86011],[-8.52647,40.86189],[-8.52826,40.86555],[-8.52739,40.86608],[-8.52445,40.86688],[-8.52396,40.86844],[-8.5291,40.87329],[-8.52732,40.87631],[-8.52785,40.87712],[-8.52676,40.87757],[-8.52558,40.8788],[-8.52429,40.88127],[-8.52466,40.88192],[-8.5241,40.88366],[-8.52514,40.88504],[-8.52324,40.89054],[-8.52585,40.89128],[-8.52763,40.89119],[-8.5298,40.89167],[-8.53106,40.89152],[-8.53053,40.89103],[-8.5309,40.89062],[-8.53261,40.89032],[-8.53414,40.88944],[-8.53561,40.88771],[-8.53889,40.88208],[-8.54143,40.87988],[-8.55015,40.87346],[-8.55271,40.87307],[-8.55415,40.87215],[-8.55749,40.87299],[-8.55841,40.87404],[-8.55971,40.87478],[-8.56204,40.87476],[-8.5629,40.87375],[-8.56504,40.87293],[-8.56574,40.87403],[-8.56806,40.87563],[-8.56984,40.875],[-8.57097,40.87522],[-8.5716,40.87458],[-8.57519,40.88067],[-8.57854,40.88507],[-8.5862,40.88935],[-8.58616,40.8896],[-8.58675,40.88966],[-8.58628,40.89143],[-8.58472,40.8921],[-8.58437,40.89176],[-8.5836,40.89184],[-8.58249,40.89301],[-8.58155,40.89284],[-8.58153,40.8937],[-8.5809,40.89409],[-8.58017,40.89592],[-8.58011,40.89853],[-8.58101,40.90048],[-8.58052,40.90215],[-8.58124,40.90845],[-8.58192,40.91102],[-8.59029,40.91847],[-8.594,40.9225],[-8.59565,40.92655],[-8.5943,40.93121],[-8.59302,40.93209],[-8.59502,40.93708],[-8.59648,40.93872],[-8.59864,40.93874],[-8.60271,40.94127],[-8.60429,40.94933],[-8.60385,40.9506],[-8.60338,40.95613],[-8.6012,40.96273],[-8.60137,40.96344],[-8.60087,40.96358],[-8.5997,40.96723],[-8.60084,40.96817],[-8.60101,40.96912],[-8.60296,40.9727],[-8.60482,40.97404],[-8.60593,40.97437],[-8.60634,40.97526],[-8.60665,40.97545],[-8.607,40.97503],[-8.60975,40.97618],[-8.61093,40.97596],[-8.61081,40.97556]]]}},{"type":"Feature","properties":{"kind":"nuts3","code":"11A","he":"האזור המטרופוליטני של פורטו","en":"Área Metropolitana do Porto","colour":"#20B2AA","nums":[1,2,3,4,5,6,7,8,9,10,11],"part":"shared"},"geometry":{"type":"LineString","coordinates":[[-8.32223,41.35514],[-8.3208,41.35408],[-8.31915,41.35397],[-8.31833,41.35136],[-8.32022,41.34778],[-8.32159,41.34671],[-8.33021,41.34283],[-8.33393,41.34069],[-8.33643,41.33874],[-8.34005,41.33652],[-8.34479,41.33661],[-8.34715,41.33724],[-8.3481,41.33698],[-8.35002,41.33573],[-8.35189,41.33518],[-8.35428,41.33534],[-8.36634,41.33462],[-8.37078,41.33378],[-8.37501,41.33704],[-8.37762,41.3372],[-8.38012,41.33794],[-8.38432,41.33857],[-8.38772,41.33749],[-8.39015,41.33596],[-8.39213,41.33605],[-8.39607,41.33437],[-8.39658,41.33341],[-8.39607,41.33246],[-8.39885,41.33082],[-8.40083,41.33027],[-8.40159,41.32928],[-8.40107,41.32821],[-8.39827,41.32612],[-8.39719,41.32569],[-8.39697,41.32494],[-8.39498,41.32227],[-8.39369,41.32112],[-8.39389,41.32005],[-8.39664,41.31731],[-8.39775,41.31334],[-8.39885,41.31169],[-8.40101,41.31032],[-8.4025,41.30982],[-8.40408,41.30874],[-8.40514,41.30852],[-8.40741,41.30726],[-8.40808,41.30701],[-8.40882,41.30741],[-8.40986,41.30746],[-8.4151,41.30568],[-8.41759,41.30386],[-8.42181,41.30323],[-8.42864,41.29978],[-8.43127,41.29885],[-8.43169,41.29796],[-8.43069,41.28922],[-8.43103,41.28719],[-8.43537,41.27866],[-8.44354,41.2716],[-8.45211,41.26222],[-8.45103,41.2596],[-8.45425,41.24655],[-8.4537,41.24516],[-8.45387,41.24293],[-8.45263,41.24203],[-8.4393,41.24325],[-8.43784,41.24442],[-8.43659,41.24757],[-8.43467,41.24936],[-8.43145,41.25152],[-8.43044,41.25164],[-8.42945,41.25219],[-8.42756,41.25175],[-8.42292,41.25202],[-8.42023,41.25292],[-8.41941,41.25419],[-8.41814,41.25505],[-8.41708,41.25452],[-8.41505,41.25445],[-8.41404,41.25477],[-8.41342,41.25555],[-8.41339,41.25441],[-8.41219,41.25149],[-8.41029,41.25084],[-8.40881,41.24954],[-8.40653,41.24864],[-8.40754,41.24789],[-8.40793,41.24702],[-8.40922,41.24637],[-8.40986,41.24551],[-8.40983,41.2446],[-8.41048,41.24336],[-8.41036,41.24226],[-8.40983,41.24155],[-8.40827,41.24112],[-8.4056,41.24177],[-8.40173,41.24223],[-8.39786,41.24143],[-8.39082,41.24505],[-8.385,41.24564],[-8.38364,41.2461],[-8.37995,41.24874],[-8.37954,41.24963],[-8.37758,41.25119],[-8.37655,41.25184],[-8.37449,41.2524],[-8.37408,41.25361],[-8.37307,41.25435],[-8.37167,41.25652],[-8.36355,41.25575],[-8.36204,41.25613],[-8.36018,41.25709],[-8.35653,41.25788],[-8.35444,41.25788],[-8.35344,41.25834],[-8.35251,41.2584],[-8.34791,41.25763],[-8.345,41.25786],[-8.34405,41.2571],[-8.34176,41.25699],[-8.34059,41.25604],[-8.33958,41.25579],[-8.33924,41.25459],[-8.33812,41.25392],[-8.33745,41.25187],[-8.33559,41.25061],[-8.33408,41.25063],[-8.33158,41.25204],[-8.3312,41.25298],[-8.33153,41.25462],[-8.32748,41.25346],[-8.32534,41.25168],[-8.32117,41.25002],[-8.31981,41.2498],[-8.3185,41.25008],[-8.31568,41.24988],[-8.31315,41.24911],[-8.31433,41.24809],[-8.31429,41.24707],[-8.31328,41.24596],[-8.31073,41.24523],[-8.31001,41.24366],[-8.31147,41.24255],[-8.31208,41.24123],[-8.31191,41.2397],[-8.31034,41.23749],[-8.30992,41.23379],[-8.30954,41.2331],[-8.30865,41.23241],[-8.306,41.23136],[-8.29848,41.2296],[-8.30307,41.22508],[-8.30519,41.22173],[-8.30969,41.22027],[-8.314,41.21773],[-8.31556,41.21605],[-8.31686,41.21365],[-8.31714,41.21207],[-8.31867,41.21139],[-8.3204,41.20954],[-8.32029,41.20728],[-8.32134,41.20669],[-8.3219,41.20551],[-8.32378,41.20418],[-8.32396,41.20307],[-8.32312,41.20139],[-8.32683,41.19946],[-8.32813,41.19908],[-8.33045,41.19679],[-8.3317,41.19656],[-8.33424,41.19637],[-8.33669,41.19868],[-8.3377,41.19893],[-8.33856,41.19878],[-8.34056,41.19784],[-8.34439,41.1945],[-8.34827,41.19234],[-8.34926,41.18872],[-8.35007,41.18775],[-8.35224,41.18676],[-8.35279,41.18564],[-8.35213,41.18398],[-8.35256,41.18319],[-8.3523,41.18213],[-8.35152,41.18152],[-8.34952,41.18103],[-8.34857,41.18012],[-8.34896,41.17858],[-8.34704,41.17598],[-8.34671,41.17494],[-8.34688,41.17416],[-8.34957,41.17307],[-8.35008,41.17173],[-8.35309,41.17252],[-8.35439,41.1725],[-8.35621,41.1717],[-8.36039,41.17121],[-8.3638,41.16966],[-8.36492,41.16884],[-8.3662,41.16667],[-8.37033,41.16209],[-8.37063,41.1612],[-8.37238,41.1596],[-8.37427,41.16058],[-8.37622,41.16049],[-8.37848,41.15905],[-8.38153,41.15632],[-8.38333,41.15249],[-8.38328,41.15171],[-8.3828,41.15116],[-8.38101,41.15027],[-8.38135,41.14813],[-8.37879,41.14444],[-8.37402,41.14063],[-8.37973,41.13841],[-8.38324,41.13645],[-8.38498,41.13423],[-8.39177,41.12937],[-8.3943,41.12709],[-8.3941,41.12375],[-8.38905,41.11489],[-8.3822,41.10751],[-8.37829,41.1007],[-8.37722,41.09964],[-8.37374,41.09419],[-8.37572,41.09215],[-8.37602,41.09057],[-8.37534,41.08948],[-8.37312,41.08814],[-8.37215,41.08599],[-8.37129,41.08506],[-8.37266,41.0833],[-8.37286,41.08216],[-8.37022,41.07657],[-8.37129,41.07442],[-8.37122,41.07358],[-8.37036,41.07245],[-8.37064,41.07133],[-8.37239,41.07227],[-8.3734,41.07213],[-8.37413,41.07159],[-8.37515,41.0675],[-8.37465,41.06583],[-8.37608,41.06418],[-8.37727,41.06137],[-8.37851,41.06017],[-8.38142,41.05576],[-8.38197,41.0529],[-8.38121,41.05221],[-8.37966,41.05177],[-8.37916,41.05092],[-8.38146,41.05068],[-8.38935,41.05127],[-8.39379,41.05203],[-8.39856,41.05372],[-8.4,41.05327],[-8.40066,41.05204],[-8.40081,41.04951],[-8.4002,41.0481],[-8.39871,41.04613],[-8.40084,41.0441],[-8.40044,41.04295],[-8.40075,41.04157],[-8.40043,41.04037],[-8.4017,41.03868],[-8.40228,41.03656],[-8.4027,41.03356],[-8.40242,41.03213],[-8.40166,41.03075],[-8.40016,41.02983],[-8.39956,41.02798],[-8.39771,41.02652],[-8.39667,41.02512],[-8.3956,41.02487],[-8.39425,41.02502],[-8.3913,41.02403],[-8.38965,41.02427],[-8.38771,41.02316],[-8.3851,41.02282],[-8.38523,41.02143],[-8.38679,41.02082],[-8.38762,41.0199],[-8.38779,41.01844],[-8.38725,41.01604],[-8.38864,41.01493],[-8.38959,41.0134],[-8.38924,41.0123],[-8.387,41.01065],[-8.38715,41.00753],[-8.38659,41.00558],[-8.3857,41.00469],[-8.38579,41.00307],[-8.3846,41.00234],[-8.37928,41.00166],[-8.37794,41.00183],[-8.37574,41.00283],[-8.37444,41.0023],[-8.37228,41.00212],[-8.37039,41.00141],[-8.36679,41.00179],[-8.3626,41.00172],[-8.36055,41.00219],[-8.3597,41.00134],[-8.35985,40.99977],[-8.35836,40.99882],[-8.3594,40.99754],[-8.35964,40.99597],[-8.36117,40.99494],[-8.36177,40.99368],[-8.3628,40.99263],[-8.36321,40.99121],[-8.3628,40.99012],[-8.36128,40.98933],[-8.36043,40.98793],[-8.35878,40.98738],[-8.35769,40.98762],[-8.35632,40.98867],[-8.35506,40.98816],[-8.35357,40.98823],[-8.35228,40.98912],[-8.35184,40.99035],[-8.35093,40.98996],[-8.34989,40.98995],[-8.34758,40.99108],[-8.34736,40.99022],[-8.3465,40.98915],[-8.34537,40.98864],[-8.34393,40.98853],[-8.34235,40.98709],[-8.34332,40.9857],[-8.3434,40.9846],[-8.34464,40.98287],[-8.3445,40.9821],[-8.34368,40.98145],[-8.34161,40.9811],[-8.34016,40.98163],[-8.33973,40.98076],[-8.33862,40.98],[-8.33666,40.98016],[-8.33574,40.98072],[-8.33493,40.98],[-8.33354,40.97977],[-8.33138,40.98043],[-8.32982,40.98211],[-8.32735,40.98236],[-8.32701,40.98127],[-8.32585,40.9806],[-8.32521,40.97972],[-8.32677,40.97758],[-8.32612,40.97616],[-8.32609,40.97499],[-8.32527,40.97388],[-8.32567,40.97281],[-8.32508,40.97183],[-8.32581,40.97093],[-8.32585,40.96981],[-8.32524,40.96898],[-8.32387,40.9684],[-8.32391,40.96717],[-8.32226,40.96576],[-8.32204,40.96421],[-8.32121,40.96372],[-8.30969,40.96091],[-8.30522,40.96196],[-8.30021,40.96192],[-8.29608,40.96144],[-8.28108,40.96217],[-8.27218,40.96424],[-8.26892,40.96456],[-8.26694,40.96512],[-8.26027,40.96612],[-8.25675,40.9654],[-8.25422,40.9656],[-8.25266,40.96632],[-8.25095,40.96573],[-8.24782,40.96526],[-8.24149,40.96236],[-8.24027,40.96227],[-8.23936,40.9626],[-8.23877,40.96348],[-8.23888,40.9653],[-8.24004,40.9684],[-8.24149,40.96939],[-8.24162,40.97068],[-8.24232,40.97185],[-8.24062,40.97471],[-8.24263,40.98511],[-8.24257,40.98822],[-8.24304,40.9904],[-8.24162,40.99877],[-8.23723,40.99843],[-8.23517,40.99926],[-8.23362,41.00035],[-8.23255,41.00152],[-8.23238,41.00252],[-8.2347,41.00519],[-8.23538,41.00646],[-8.23224,41.00678],[-8.23098,41.00758],[-8.23107,41.00998],[-8.23224,41.01138],[-8.23107,41.01227],[-8.22998,41.0126],[-8.22815,41.01266],[-8.22573,41.01431],[-8.22403,41.01471],[-8.22108,41.01397],[-8.21782,41.0124],[-8.21734,41.01124],[-8.21623,41.01053],[-8.21501,41.01044],[-8.21382,41.01095],[-8.21069,41.01121],[-8.20893,41.01217],[-8.20805,41.01131],[-8.20775,41.0104],[-8.20669,41.00972],[-8.20861,41.00834],[-8.20966,41.00695],[-8.2118,41.0055],[-8.21221,41.00456],[-8.21351,41.00353],[-8.21338,41.00251],[-8.21247,41.00126],[-8.21072,40.99981],[-8.21043,40.99906],[-8.21067,40.99788],[-8.21207,40.99665],[-8.21376,40.9963],[-8.21468,40.99555],[-8.21509,40.99397],[-8.2139,40.9929],[-8.2129,40.99269],[-8.20825,40.99312],[-8.20655,40.99296],[-8.20422,40.99355],[-8.20295,40.99449],[-8.2018,40.99489],[-8.20054,40.9946],[-8.19773,40.9949],[-8.19556,40.99633],[-8.19451,40.99653],[-8.193,40.99601],[-8.17861,40.98691],[-8.17721,40.98702],[-8.17572,40.98799],[-8.17184,40.98728],[-8.17028,40.986],[-8.16479,40.98473],[-8.163,40.98505],[-8.16185,40.98584],[-8.16082,40.98796],[-8.15938,40.98745],[-8.15741,40.98571],[-8.15606,40.98541],[-8.15357,40.98261],[-8.15146,40.98199],[-8.1511,40.98131],[-8.15012,40.98067],[-8.14841,40.98074],[-8.1452,40.97809],[-8.14289,40.97721],[-8.14145,40.97774],[-8.14001,40.97776],[-8.13876,40.97734],[-8.13694,40.9777],[-8.13411,40.97722],[-8.13237,40.97743],[-8.13007,40.97882],[-8.12895,40.98034],[-8.12609,40.98222],[-8.12273,40.98368],[-8.11922,40.98752],[-8.11791,40.99012],[-8.11698,40.99271],[-8.11752,40.99384],[-8.11692,40.99605],[-8.11345,40.997],[-8.10914,40.99864],[-8.10544,41.00141],[-8.10401,41.00077],[-8.10245,41.0012],[-8.10119,41.00307],[-8.10044,41.0053],[-8.10058,41.00709],[-8.09972,41.0081],[-8.09792,41.01181],[-8.09566,41.00976],[-8.09272,41.00819],[-8.09211,41.00444],[-8.09222,41.00078],[-8.09385,40.99764],[-8.09301,40.99404],[-8.09227,40.9924],[-8.09232,40.99116],[-8.09125,40.98816],[-8.09349,40.9868],[-8.09604,40.98469]]}},{"type":"Feature","properties":{"kind":"nuts3","code":"11C","he":"טאמגה אה סוזה","en":"Tâmega e Sousa","colour":"#87CEFA","nums":[12,13,14,15,16,17,18],"part":"solo"},"geometry":{"type":"LineString","coordinates":[[-8.30952,41.3499],[-8.30897,41.34836],[-8.30925,41.34752],[-8.30681,41.34738],[-8.30581,41.3465],[-8.3068,41.34591],[-8.30671,41.34559],[-8.30403,41.34327],[-8.30332,41.34296],[-8.30238,41.34314],[-8.30123,41.34396],[-8.299,41.34307],[-8.29869,41.34344],[-8.29822,41.34337],[-8.29648,41.34163],[-8.29461,41.34264],[-8.28987,41.34329],[-8.28786,41.34266],[-8.28714,41.34155],[-8.28732,41.34106],[-8.2864,41.34169],[-8.28674,41.34222],[-8.28622,41.34246],[-8.28587,41.34225],[-8.28378,41.3433],[-8.28306,41.34376],[-8.28296,41.34425],[-8.28229,41.34427],[-8.28198,41.3447],[-8.27838,41.34583],[-8.27854,41.34871],[-8.27777,41.35014],[-8.27705,41.35659],[-8.2762,41.35712],[-8.27648,41.35807],[-8.27569,41.35882],[-8.27592,41.36089],[-8.27538,41.36178],[-8.27465,41.36221],[-8.27444,41.36288],[-8.27364,41.36296],[-8.27409,41.36488],[-8.27605,41.36552],[-8.27656,41.36635],[-8.2783,41.36722],[-8.27786,41.36761],[-8.27827,41.36786],[-8.27762,41.36852],[-8.27805,41.36873],[-8.27785,41.36941],[-8.27651,41.3704],[-8.27586,41.37025],[-8.27338,41.37174],[-8.27147,41.37102],[-8.26976,41.37131],[-8.26939,41.37196],[-8.26783,41.37294],[-8.2683,41.37343],[-8.26842,41.37443],[-8.26694,41.37508],[-8.26728,41.37575],[-8.26583,41.37732],[-8.26428,41.37641],[-8.264,41.37745],[-8.26341,41.37795],[-8.25988,41.37846],[-8.26027,41.38054],[-8.25899,41.38064],[-8.2572,41.38222],[-8.25641,41.38202],[-8.25603,41.38219],[-8.25626,41.38285],[-8.25734,41.38347],[-8.25683,41.38493],[-8.25631,41.38512],[-8.255,41.38465],[-8.25427,41.38479],[-8.25339,41.3857],[-8.25069,41.38657],[-8.25018,41.38718],[-8.25064,41.38753],[-8.24996,41.38811],[-8.24615,41.38965],[-8.24712,41.39196],[-8.2462,41.39325],[-8.24712,41.39366],[-8.24606,41.39423],[-8.24434,41.393],[-8.24107,41.39379],[-8.2398,41.39311],[-8.23628,41.39342],[-8.23457,41.3928],[-8.23024,41.39465],[-8.22931,41.39467],[-8.22858,41.39522],[-8.22715,41.39441],[-8.2263,41.3926],[-8.22592,41.39306],[-8.2243,41.39299],[-8.2223,41.39348],[-8.22277,41.39499],[-8.22167,41.3957],[-8.22133,41.39721],[-8.22037,41.3977],[-8.22236,41.39974],[-8.22192,41.39981],[-8.22249,41.40203],[-8.22173,41.40277],[-8.22412,41.40589],[-8.22298,41.40671],[-8.22197,41.40691],[-8.22201,41.40802],[-8.22073,41.40881],[-8.22331,41.40872],[-8.22332,41.40959],[-8.22301,41.40994],[-8.21971,41.41086],[-8.21914,41.41059],[-8.21804,41.41124],[-8.2154,41.41187],[-8.20891,41.41144],[-8.20392,41.40968],[-8.20058,41.40884],[-8.18552,41.40997],[-8.18051,41.40251],[-8.17943,41.39731],[-8.17897,41.39713],[-8.17635,41.39897],[-8.17482,41.39967],[-8.17229,41.39954],[-8.17023,41.40047],[-8.16788,41.39993],[-8.16584,41.4003],[-8.16442,41.39809],[-8.16392,41.39657],[-8.16241,41.395],[-8.16196,41.39297],[-8.15988,41.39214],[-8.16001,41.39028],[-8.16051,41.38963],[-8.16021,41.38767],[-8.16042,41.38633],[-8.15979,41.38463],[-8.15995,41.38319],[-8.15882,41.38116],[-8.14718,41.37917],[-8.14657,41.37875],[-8.14556,41.37889],[-8.14461,41.37714],[-8.14332,41.37795],[-8.14164,41.37779],[-8.14038,41.37836],[-8.1396,41.37768],[-8.13838,41.37424],[-8.14028,41.37295],[-8.13321,41.37283],[-8.12989,41.3744],[-8.12697,41.37438],[-8.12466,41.3761],[-8.12071,41.37643],[-8.1186,41.37759],[-8.11715,41.37632],[-8.11635,41.3777],[-8.11695,41.37891],[-8.11625,41.38472],[-8.11678,41.38529],[-8.11502,41.38619],[-8.1143,41.38682],[-8.11434,41.3874],[-8.11285,41.38816],[-8.1131,41.38886],[-8.11795,41.39139],[-8.11635,41.39174],[-8.11334,41.39336],[-8.11122,41.39302],[-8.10982,41.39313],[-8.1098,41.39489],[-8.11187,41.39744],[-8.11,41.39901],[-8.10907,41.40517],[-8.10581,41.41086],[-8.10675,41.41426],[-8.10912,41.41553],[-8.10908,41.41995],[-8.11053,41.42111],[-8.11028,41.42175],[-8.1074,41.42355],[-8.106,41.42512],[-8.10441,41.42532],[-8.10446,41.42465],[-8.10406,41.42412],[-8.10287,41.42455],[-8.10188,41.42567],[-8.09901,41.42592],[-8.0995,41.42654],[-8.09942,41.42953],[-8.09981,41.43031],[-8.10027,41.43622],[-8.10017,41.43782],[-8.09828,41.44043],[-8.09567,41.44164],[-8.09383,41.44205],[-8.09265,41.4431],[-8.086,41.44539],[-8.08477,41.44602],[-8.08348,41.44726],[-8.08173,41.44759],[-8.07888,41.45017],[-8.07878,41.45074],[-8.07977,41.45277],[-8.07682,41.45417],[-8.07005,41.45969],[-8.0701,41.4661],[-8.0712,41.46917],[-8.07352,41.47367],[-8.07176,41.4763],[-8.06832,41.47938],[-8.06798,41.48079],[-8.06625,41.48287],[-8.06588,41.48712],[-8.06631,41.48794],[-8.06109,41.48402],[-8.05593,41.48169],[-8.05281,41.48094],[-8.04981,41.48159],[-8.04756,41.48279],[-8.04689,41.48201],[-8.04569,41.48173],[-8.04399,41.47935],[-8.04208,41.47894],[-8.04057,41.47747],[-8.03966,41.47731],[-8.03799,41.47624],[-8.03746,41.4762],[-8.03693,41.47697],[-8.03388,41.47806],[-8.03257,41.47923],[-8.02964,41.47921],[-8.02866,41.47889],[-8.02866,41.47845],[-8.0275,41.47717],[-8.02651,41.47672],[-8.02604,41.47587],[-8.02442,41.4752],[-8.02441,41.47487],[-8.02347,41.47514],[-8.02242,41.47491],[-8.02181,41.47523],[-8.02043,41.47523],[-8.01913,41.47672],[-8.01791,41.47699],[-8.01661,41.47775],[-8.01563,41.47739],[-8.01356,41.47821],[-8.01277,41.47824],[-8.01199,41.47877],[-8.00741,41.47885],[-8.00642,41.47819],[-8.00665,41.47752],[-8.00522,41.47554],[-8.00548,41.47447],[-8.00714,41.47158],[-8.00494,41.46964],[-8.0026,41.46661],[-7.99459,41.46428],[-7.98995,41.46125],[-7.98529,41.4596],[-7.98206,41.45915],[-7.97001,41.45617],[-7.95987,41.45252],[-7.95396,41.45005],[-7.94825,41.4469],[-7.94577,41.44664],[-7.93869,41.44705],[-7.93736,41.4459],[-7.93694,41.44471],[-7.93878,41.44314],[-7.93847,41.44147],[-7.93915,41.43845],[-7.93894,41.43684],[-7.93944,41.43445],[-7.94169,41.42998],[-7.94415,41.42877],[-7.94812,41.42615],[-7.95054,41.42369],[-7.95287,41.42262],[-7.95793,41.41894],[-7.96114,41.41802],[-7.96375,41.41509],[-7.96641,41.41306],[-7.96668,41.41207],[-7.96644,41.41102],[-7.96298,41.40386],[-7.96324,41.40133],[-7.96393,41.40103],[-7.96548,41.40117],[-7.96662,41.40008],[-7.9678,41.4001],[-7.96847,41.40098],[-7.97216,41.40251],[-7.97539,41.40261],[-7.97581,41.4013],[-7.97545,41.4001],[-7.97379,41.39774],[-7.97408,41.397],[-7.97499,41.39603],[-7.97578,41.39567],[-7.98041,41.39542],[-7.98088,41.39518],[-7.98115,41.39439],[-7.97867,41.39113],[-7.97622,41.3901],[-7.97538,41.39005],[-7.97334,41.39087],[-7.97286,41.39217],[-7.97203,41.39274],[-7.96877,41.39285],[-7.96775,41.39238],[-7.96756,41.39197],[-7.96718,41.38977],[-7.96836,41.38715],[-7.9685,41.38479],[-7.96935,41.38149],[-7.97417,41.3752],[-7.97278,41.37369],[-7.97137,41.37336],[-7.96986,41.3723],[-7.97105,41.36752],[-7.97057,41.36683],[-7.97065,41.36589],[-7.97181,41.36406],[-7.97347,41.36389],[-7.97311,41.36316],[-7.97325,41.36176],[-7.97274,41.3613],[-7.97265,41.3604],[-7.97152,41.36],[-7.97011,41.36051],[-7.96924,41.36],[-7.96588,41.35914],[-7.96301,41.35902],[-7.95945,41.35844],[-7.95791,41.35934],[-7.9566,41.359],[-7.95599,41.35874],[-7.9556,41.35775],[-7.95415,41.35632],[-7.94846,41.3539],[-7.94734,41.35263],[-7.94793,41.35173],[-7.94738,41.35055],[-7.94783,41.34889],[-7.95026,41.34777],[-7.94964,41.34673],[-7.94997,41.34561],[-7.95107,41.34537],[-7.9528,41.346],[-7.95343,41.34421],[-7.95645,41.34289],[-7.95812,41.34334],[-7.95878,41.34321],[-7.95874,41.34142],[-7.96089,41.33621],[-7.96146,41.33563],[-7.96339,41.33493],[-7.96403,41.33323],[-7.96554,41.33274],[-7.96501,41.33191],[-7.96302,41.33102],[-7.96318,41.33011],[-7.96396,41.32958],[-7.96241,41.329],[-7.96151,41.32781],[-7.96003,41.32735],[-7.95939,41.32625],[-7.95857,41.3257],[-7.9582,41.32436],[-7.95578,41.32316],[-7.95414,41.32282],[-7.9534,41.32337],[-7.95112,41.32306],[-7.9484,41.32355],[-7.94702,41.32292],[-7.94636,41.32321],[-7.9451,41.32308],[-7.94429,41.32214],[-7.94183,41.32157],[-7.94081,41.3215],[-7.93982,41.32218],[-7.9378,41.32128],[-7.93599,41.32102],[-7.93471,41.32012],[-7.93335,41.31978],[-7.93234,41.31827],[-7.93063,41.31776],[-7.92927,41.31803],[-7.92827,41.31715],[-7.92883,41.31622],[-7.92831,41.31564],[-7.9259,41.31453],[-7.9251,41.31464],[-7.92439,41.31437],[-7.92347,41.31316],[-7.92217,41.31256],[-7.9226,41.31218],[-7.92222,41.31188],[-7.92038,41.31099],[-7.91921,41.31087],[-7.91764,41.30949],[-7.91689,41.30854],[-7.91788,41.30837],[-7.91741,41.30722],[-7.91659,41.30686],[-7.91482,41.30719],[-7.91463,41.30645],[-7.91377,41.30552],[-7.91108,41.30487],[-7.90942,41.3034],[-7.90764,41.30267],[-7.90848,41.30171],[-7.91176,41.30017],[-7.91331,41.29845],[-7.91539,41.29763],[-7.91662,41.29544],[-7.91749,41.29241],[-7.92129,41.29062],[-7.91942,41.28736],[-7.9194,41.2854],[-7.91859,41.28403],[-7.91463,41.28178],[-7.91413,41.28052],[-7.9151,41.27429],[-7.91621,41.27262],[-7.90888,41.27269],[-7.90455,41.27193],[-7.90048,41.27036],[-7.89639,41.26754],[-7.89682,41.26358],[-7.89423,41.26071],[-7.89405,41.26006],[-7.89582,41.25548],[-7.89494,41.24993],[-7.89573,41.24893],[-7.88697,41.24847],[-7.88493,41.24786],[-7.88358,41.2478],[-7.88361,41.24733],[-7.87979,41.24556],[-7.87558,41.24205],[-7.87787,41.24088],[-7.87959,41.23643],[-7.87977,41.23426],[-7.87936,41.23311],[-7.87852,41.23263],[-7.88178,41.23064],[-7.88358,41.2283],[-7.88442,41.22589],[-7.88638,41.223],[-7.88828,41.2178],[-7.89177,41.2137],[-7.89208,41.21066],[-7.89409,41.20924],[-7.8933,41.20603],[-7.89034,41.20244],[-7.88986,41.1987],[-7.88994,41.19576],[-7.88797,41.18909],[-7.88827,41.18792],[-7.8892,41.18782],[-7.89013,41.18671],[-7.89059,41.18449],[-7.89021,41.18325],[-7.89077,41.18217],[-7.89265,41.18082],[-7.89395,41.17918],[-7.89423,41.17798],[-7.8965,41.17595],[-7.89725,41.17469],[-7.89808,41.17476],[-7.89855,41.17448],[-7.89894,41.17286],[-7.89862,41.17254],[-7.89867,41.17171],[-7.89828,41.17122],[-7.89754,41.17139],[-7.89684,41.17104],[-7.89539,41.1682],[-7.89569,41.16797],[-7.89688,41.16828],[-7.89789,41.16819],[-7.89845,41.16755],[-7.89823,41.16722],[-7.89712,41.16706],[-7.89413,41.16536],[-7.89358,41.16391],[-7.89228,41.16421],[-7.88945,41.16314],[-7.89158,41.16144],[-7.8924,41.16199],[-7.89293,41.1618],[-7.8932,41.16038],[-7.89284,41.15952],[-7.89648,41.15816],[-7.89798,41.15855],[-7.89791,41.15777],[-7.89885,41.15675],[-7.90062,41.15579],[-7.90202,41.15607],[-7.9037,41.15474],[-7.90251,41.15348],[-7.9006,41.15238],[-7.90013,41.15144],[-7.90064,41.15043],[-7.90217,41.14908],[-7.90119,41.14727],[-7.90874,41.14272],[-7.90983,41.14113],[-7.91137,41.13997],[-7.91239,41.13854],[-7.91292,41.13594],[-7.9136,41.13496],[-7.91441,41.13447],[-7.91404,41.13381],[-7.91323,41.13414],[-7.91244,41.13301],[-7.91278,41.13248],[-7.91234,41.1304],[-7.91332,41.13006],[-7.91246,41.13002],[-7.91315,41.12965],[-7.91175,41.12754],[-7.91142,41.12764],[-7.91094,41.12707],[-7.9115,41.127],[-7.91184,41.12647],[-7.91242,41.12418],[-7.91187,41.12422],[-7.91244,41.12378],[-7.91237,41.12319],[-7.91181,41.12309],[-7.91171,41.12261],[-7.91186,41.11989],[-7.90498,41.11874],[-7.9015,41.11935],[-7.89971,41.12055],[-7.89714,41.12482],[-7.89698,41.12734],[-7.8978,41.12991],[-7.89739,41.13188],[-7.89649,41.13277],[-7.89318,41.13468],[-7.89206,41.1346],[-7.88951,41.13301],[-7.88867,41.13315],[-7.88753,41.13394],[-7.88637,41.13645],[-7.88567,41.14096],[-7.88495,41.14321],[-7.88269,41.14524],[-7.88013,41.15051],[-7.87817,41.15026],[-7.87446,41.14936],[-7.87392,41.14863],[-7.87333,41.14886],[-7.87317,41.1478],[-7.87282,41.14756],[-7.87386,41.14716],[-7.87352,41.14693],[-7.87485,41.14568],[-7.87422,41.14529],[-7.87475,41.14503],[-7.87474,41.1445],[-7.87316,41.14323],[-7.87283,41.14331],[-7.86842,41.13936],[-7.86574,41.13768],[-7.86283,41.13518],[-7.86068,41.13233],[-7.86148,41.13214],[-7.86156,41.13164],[-7.86075,41.131],[-7.86071,41.13051],[-7.86011,41.13035],[-7.85974,41.13087],[-7.85888,41.1303],[-7.85883,41.12871],[-7.86085,41.1266],[-7.85976,41.12535],[-7.85723,41.12393],[-7.85557,41.12168],[-7.85358,41.12073],[-7.85059,41.11435],[-7.85073,41.11361],[-7.85035,41.11271],[-7.8507,41.11111],[-7.85981,41.10539],[-7.86019,41.10283],[-7.86297,41.10059],[-7.86702,41.09963],[-7.86945,41.09717],[-7.86847,41.094],[-7.87053,41.08797],[-7.87572,41.08095],[-7.87894,41.07716],[-7.87853,41.07289],[-7.88057,41.07113],[-7.88359,41.06545],[-7.89009,41.05734],[-7.89356,41.05702],[-7.89745,41.05297],[-7.90432,41.0476],[-7.90651,41.04439],[-7.90755,41.04141],[-7.90937,41.03813],[-7.91033,41.03405],[-7.91133,41.0336],[-7.91143,41.03104],[-7.91107,41.02969],[-7.91052,41.02966],[-7.91052,41.02941],[-7.91277,41.02547],[-7.91358,41.02515],[-7.9136,41.02454],[-7.91426,41.02424],[-7.91381,41.02339],[-7.91462,41.02317],[-7.91457,41.02145],[-7.91493,41.0212],[-7.91459,41.02093],[-7.91568,41.01997],[-7.91891,41.01997],[-7.91984,41.01933],[-7.9216,41.01973],[-7.92254,41.01811],[-7.92339,41.01828],[-7.92439,41.01764],[-7.92444,41.01739],[-7.92358,41.01699],[-7.92387,41.01655],[-7.92668,41.01588],[-7.92888,41.01584],[-7.93487,41.01679],[-7.93621,41.0175],[-7.93979,41.01574],[-7.94406,41.01242],[-7.94692,41.00636],[-7.94675,41.00459],[-7.94703,41.00366],[-7.95119,40.9993],[-7.9508,40.99888],[-7.95072,40.99796],[-7.95114,40.99699],[-7.94999,40.99477],[-7.95011,40.99201],[-7.95296,40.98905],[-7.95357,40.98764],[-7.95639,40.98462],[-7.95735,40.98431],[-7.95789,40.98366],[-7.96056,40.98209],[-7.96131,40.98207],[-7.96213,40.98097],[-7.9637,40.97983],[-7.96377,40.97892],[-7.9643,40.97862],[-7.96437,40.97814],[-7.96506,40.97797],[-7.96529,40.97723],[-7.96758,40.97645],[-7.96798,40.97497],[-7.96736,40.97459],[-7.96676,40.97464],[-7.96693,40.97347],[-7.9689,40.97297],[-7.97036,40.97217],[-7.97223,40.97439],[-7.97323,40.97443],[-7.97367,40.97551],[-7.97442,40.97579],[-7.97422,40.97615],[-7.97627,40.97644],[-7.9765,40.97579],[-7.97824,40.97465],[-7.98115,40.97585],[-7.98289,40.97452],[-7.98358,40.97435],[-7.98453,40.97486],[-7.98634,40.97465],[-7.98703,40.97414],[-7.98687,40.97328],[-7.98827,40.97361],[-7.99079,40.97316],[-7.99083,40.97082],[-7.99295,40.96966],[-7.9938,40.9699],[-7.99492,40.96934],[-7.99761,40.96724],[-8.00263,40.96807],[-8.00425,40.96708],[-8.0067,40.96685],[-8.00799,40.96731],[-8.0088,40.96679],[-8.00897,40.96632],[-8.01097,40.96641],[-8.01668,40.96494],[-8.01964,40.96474],[-8.02352,40.96681],[-8.02759,40.97014],[-8.02806,40.97098],[-8.03464,40.97612],[-8.03596,40.97801],[-8.03936,40.98109],[-8.04023,40.98228],[-8.04043,40.98472],[-8.04805,40.98446],[-8.04896,40.98474],[-8.05105,40.98653],[-8.05187,40.98636],[-8.05357,40.98499],[-8.05726,40.98363],[-8.0612,40.98172],[-8.06762,40.98301],[-8.06907,40.98354],[-8.07373,40.98322],[-8.07736,40.98348],[-8.079,40.98472],[-8.08252,40.98563]]}},{"type":"Feature","properties":{"kind":"nuts3","code":"11C","he":"טאמגה אה סוזה","en":"Tâmega e Sousa","colour":"#87CEFA","nums":[12,13,14,15,16,17,18],"part":"shared"},"geometry":{"type":"MultiLineString","coordinates":[[[-8.45055,41.24652],[-8.44742,41.25956],[-8.44833,41.26183],[-8.44072,41.26993],[-8.43232,41.27722],[-8.42758,41.28645],[-8.4271,41.28917],[-8.42796,41.29708],[-8.4203,41.30075],[-8.41585,41.30143],[-8.4133,41.30333],[-8.41003,41.30446],[-8.40923,41.30402],[-8.40834,41.30396],[-8.4057,41.30489],[-8.40218,41.30645],[-8.40059,41.30753],[-8.39898,41.30807],[-8.39596,41.31009],[-8.39434,41.31244],[-8.39349,41.31597],[-8.39249,41.31663],[-8.39035,41.31956],[-8.39025,41.32199],[-8.39212,41.32395],[-8.39353,41.32597],[-8.394,41.32731],[-8.39643,41.3288],[-8.39427,41.32993],[-8.39237,41.33154],[-8.39185,41.33295],[-8.3911,41.33335],[-8.38851,41.33343],[-8.38683,41.3347],[-8.38392,41.33585],[-8.37839,41.33455],[-8.37655,41.33451],[-8.37311,41.33172],[-8.37116,41.33108],[-8.36948,41.33114],[-8.36586,41.33194],[-8.35423,41.33263],[-8.35146,41.33238],[-8.34821,41.33338],[-8.34683,41.33427],[-8.34398,41.33381],[-8.33927,41.33367],[-8.32804,41.34067],[-8.31927,41.34464],[-8.31718,41.3463],[-8.31539,41.34961],[-8.31108,41.34875],[-8.31095,41.34708]],[[-8.08209,40.98696],[-8.08372,40.98726],[-8.08683,40.98716],[-8.08752,40.98808],[-8.08862,40.99101],[-8.0887,40.99274],[-8.08955,40.9947],[-8.09017,40.99763],[-8.08865,41.00064],[-8.08854,41.00457],[-8.08941,41.00945],[-8.08992,41.00999],[-8.0933,41.0118],[-8.0944,41.01281],[-8.09453,41.01366],[-8.09535,41.01438],[-8.09726,41.01498],[-8.09967,41.01472],[-8.10061,41.01412],[-8.10296,41.00925],[-8.10414,41.00791],[-8.10397,41.00573],[-8.10437,41.00454],[-8.10534,41.00481],[-8.10666,41.0046],[-8.11107,41.00091],[-8.11984,40.99793],[-8.12113,40.99381],[-8.12078,40.99207],[-8.12269,40.98837],[-8.1252,40.98568],[-8.12806,40.9845],[-8.13206,40.98197],[-8.13266,40.98091],[-8.134,40.97994],[-8.13822,40.98068],[-8.14294,40.98021],[-8.14645,40.98322],[-8.15083,40.98475],[-8.15117,40.98558],[-8.15247,40.98615],[-8.15373,40.98793],[-8.15457,40.98836],[-8.15561,40.98838],[-8.15645,40.9897],[-8.16044,40.99082],[-8.1615,40.99079],[-8.16325,40.98999],[-8.16434,40.98882],[-8.1648,40.98747],[-8.16835,40.9883],[-8.16853,40.98928],[-8.1696,40.98991],[-8.17223,40.99],[-8.17621,40.99087],[-8.17721,40.99065],[-8.17811,40.99],[-8.19097,40.9983],[-8.19386,40.99952],[-8.19711,40.99899],[-8.19922,40.99736],[-8.2025,40.9977],[-8.20462,40.99691],[-8.20605,40.99593],[-8.20704,40.99568],[-8.20829,40.99585],[-8.20675,40.99693],[-8.20667,40.99918],[-8.20726,41.00092],[-8.20948,41.00278],[-8.20869,41.00404],[-8.20618,41.00585],[-8.20524,41.00712],[-8.20225,41.00871],[-8.20199,41.00961],[-8.20264,41.01079],[-8.20451,41.01186],[-8.20489,41.01305],[-8.20737,41.01478],[-8.21029,41.01494],[-8.21191,41.0138],[-8.21422,41.01367],[-8.2146,41.01453],[-8.21524,41.01497],[-8.21691,41.01507],[-8.21952,41.01649],[-8.22086,41.01667],[-8.22193,41.0172],[-8.22442,41.01741],[-8.22758,41.01664],[-8.22953,41.01529],[-8.23095,41.01521],[-8.23282,41.01462],[-8.23623,41.0125],[-8.2364,41.01136],[-8.23471,41.00942],[-8.23761,41.00866],[-8.23868,41.00767],[-8.23895,41.00671],[-8.23855,41.0051],[-8.23638,41.00206],[-8.23803,41.0011],[-8.23996,41.00118],[-8.24194,41.00191],[-8.24313,41.00196],[-8.24434,41.0015],[-8.24486,41.00085],[-8.24662,40.9904],[-8.24613,40.98796],[-8.24618,40.98481],[-8.2442,40.97508],[-8.246,40.97205],[-8.24508,40.96996],[-8.24488,40.96822],[-8.24409,40.96736],[-8.24321,40.96699],[-8.2429,40.96615],[-8.24652,40.96779],[-8.25292,40.96914],[-8.25531,40.96819],[-8.2568,40.96812],[-8.26028,40.96885],[-8.26755,40.96781],[-8.27307,40.96686],[-8.28172,40.96484],[-8.29597,40.96415],[-8.30004,40.96462],[-8.30491,40.96467],[-8.30961,40.96367],[-8.31843,40.96595],[-8.31867,40.9668],[-8.32004,40.96825],[-8.32029,40.96977],[-8.32122,40.97056],[-8.32102,40.97175],[-8.3213,40.97246],[-8.32061,40.97325],[-8.32065,40.97426],[-8.32253,40.97568],[-8.32256,40.97752],[-8.32236,40.97768],[-8.32091,40.97731],[-8.31986,40.97763],[-8.31923,40.97828],[-8.31909,40.97963],[-8.31993,40.98127],[-8.32094,40.98173],[-8.32222,40.98184],[-8.32277,40.98297],[-8.32386,40.98347],[-8.32531,40.98481],[-8.32686,40.98525],[-8.33034,40.98483],[-8.33181,40.98438],[-8.33303,40.9835],[-8.33443,40.98443],[-8.3354,40.98448],[-8.33639,40.98414],[-8.33762,40.98534],[-8.33874,40.98547],[-8.33965,40.98524],[-8.33887,40.98634],[-8.33893,40.98799],[-8.34174,40.9907],[-8.34268,40.99113],[-8.34401,40.99124],[-8.34436,40.99276],[-8.34551,40.99375],[-8.34733,40.99405],[-8.3503,40.99314],[-8.35149,40.99376],[-8.35291,40.9939],[-8.35476,40.99321],[-8.35574,40.99383],[-8.35705,40.99404],[-8.35622,40.99507],[-8.35596,40.99678],[-8.35259,40.99721],[-8.3517,40.9979],[-8.35142,40.99863],[-8.35152,40.9995],[-8.35261,41.00095],[-8.35363,41.00162],[-8.35501,41.00173],[-8.3552,41.00259],[-8.35584,41.00323],[-8.35757,41.00372],[-8.35885,41.0048],[-8.35982,41.0051],[-8.36303,41.00442],[-8.367,41.00449],[-8.36995,41.00417],[-8.37099,41.00474],[-8.37342,41.00492],[-8.37598,41.00589],[-8.3792,41.0044],[-8.38213,41.00482],[-8.38363,41.00803],[-8.3833,41.01125],[-8.3842,41.01249],[-8.38554,41.01345],[-8.38369,41.0153],[-8.38347,41.0177],[-8.38417,41.0188],[-8.38214,41.01974],[-8.38143,41.02057],[-8.38182,41.02404],[-8.38335,41.02545],[-8.38612,41.02587],[-8.38922,41.02759],[-8.39059,41.0276],[-8.39148,41.02708],[-8.39318,41.02776],[-8.39443,41.02782],[-8.3965,41.02939],[-8.39683,41.03111],[-8.3989,41.0327],[-8.39912,41.03362],[-8.39832,41.0378],[-8.398,41.03831],[-8.3968,41.03884],[-8.39644,41.03947],[-8.39719,41.04157],[-8.39654,41.04275],[-8.39663,41.04386],[-8.39494,41.04523],[-8.39457,41.04595],[-8.39479,41.04671],[-8.39693,41.04919],[-8.39731,41.05034],[-8.395,41.04948],[-8.39004,41.04862],[-8.38156,41.04797],[-8.37487,41.0488],[-8.37394,41.04919],[-8.37346,41.05032],[-8.37432,41.05201],[-8.37822,41.05425],[-8.37532,41.05893],[-8.37396,41.06027],[-8.37273,41.06318],[-8.37105,41.06523],[-8.37141,41.06805],[-8.36921,41.06695],[-8.36821,41.06709],[-8.36739,41.06774],[-8.36672,41.07226],[-8.36698,41.07334],[-8.36771,41.07431],[-8.3666,41.07654],[-8.36861,41.08168],[-8.36923,41.08242],[-8.36844,41.08314],[-8.36781,41.08444],[-8.36788,41.08595],[-8.36955,41.08823],[-8.36995,41.08984],[-8.37082,41.09059],[-8.37242,41.09109],[-8.36996,41.09308],[-8.36973,41.09435],[-8.37154,41.09665],[-8.37411,41.10103],[-8.37512,41.10196],[-8.37909,41.10884],[-8.38588,41.11615],[-8.39063,41.12448],[-8.39075,41.12625],[-8.38173,41.13284],[-8.38071,41.13448],[-8.37786,41.13609],[-8.37009,41.13917],[-8.36938,41.13989],[-8.36959,41.14103],[-8.37582,41.14596],[-8.37778,41.14874],[-8.3773,41.15182],[-8.37814,41.15266],[-8.37935,41.15282],[-8.37881,41.15356],[-8.37867,41.15469],[-8.37504,41.1577],[-8.37462,41.15675],[-8.37338,41.15598],[-8.37193,41.15598],[-8.37027,41.15678],[-8.36318,41.16522],[-8.36195,41.1673],[-8.35892,41.16874],[-8.35488,41.16917],[-8.35363,41.16983],[-8.353,41.16967],[-8.35242,41.16847],[-8.35132,41.16797],[-8.34858,41.1678],[-8.34721,41.16841],[-8.34638,41.17095],[-8.34515,41.17173],[-8.34349,41.17208],[-8.34277,41.17316],[-8.34293,41.17549],[-8.34373,41.17721],[-8.34531,41.179],[-8.34477,41.18002],[-8.34489,41.18113],[-8.34615,41.18221],[-8.34674,41.18349],[-8.34837,41.18408],[-8.34863,41.1849],[-8.3473,41.1857],[-8.34595,41.18715],[-8.345,41.1894],[-8.34487,41.19092],[-8.34183,41.19259],[-8.33889,41.19473],[-8.33818,41.19566],[-8.33631,41.19397],[-8.3354,41.19357],[-8.32936,41.19419],[-8.32669,41.19578],[-8.32591,41.19683],[-8.3204,41.19953],[-8.31875,41.19999],[-8.31828,41.20078],[-8.31833,41.20174],[-8.31898,41.20254],[-8.32008,41.20314],[-8.31882,41.2041],[-8.3184,41.20497],[-8.31689,41.20604],[-8.31626,41.20784],[-8.31664,41.2088],[-8.31617,41.20937],[-8.31491,41.20934],[-8.31387,41.21004],[-8.3134,41.21293],[-8.3125,41.21464],[-8.31143,41.21582],[-8.30757,41.21806],[-8.3026,41.21978],[-8.30003,41.22364],[-8.2949,41.22878],[-8.29447,41.23116],[-8.29504,41.23184],[-8.29613,41.23225],[-8.29829,41.23229],[-8.30456,41.23384],[-8.30606,41.23438],[-8.30646,41.23487],[-8.30687,41.23833],[-8.30827,41.24048],[-8.3063,41.24268],[-8.30609,41.2436],[-8.3076,41.24698],[-8.30858,41.24762],[-8.30976,41.24785],[-8.3092,41.24845],[-8.30907,41.24923],[-8.30923,41.25023],[-8.30979,41.25086],[-8.3124,41.25185],[-8.3167,41.25291],[-8.3184,41.25313],[-8.3199,41.25261],[-8.32128,41.25351],[-8.32267,41.25365],[-8.32575,41.25591],[-8.33151,41.25756],[-8.33334,41.25784],[-8.33434,41.25769],[-8.33515,41.25703],[-8.33531,41.25619],[-8.33864,41.25951],[-8.33963,41.25979],[-8.34188,41.25971],[-8.34402,41.26095],[-8.34759,41.26044],[-8.3522,41.26112],[-8.35474,41.26101],[-8.3558,41.26055],[-8.35694,41.26057],[-8.36106,41.2598],[-8.36368,41.25859],[-8.37308,41.25921],[-8.37464,41.25806],[-8.376,41.25592],[-8.38159,41.25202],[-8.38311,41.25018],[-8.3857,41.24831],[-8.39213,41.24758],[-8.39866,41.24429],[-8.40152,41.24497],[-8.40574,41.24449],[-8.4057,41.24487],[-8.40434,41.2459],[-8.40344,41.24609],[-8.40268,41.2467],[-8.40198,41.24883],[-8.40209,41.2496],[-8.40275,41.2502],[-8.40651,41.25166],[-8.40751,41.25274],[-8.40909,41.25341],[-8.41026,41.25723],[-8.4113,41.2581],[-8.41262,41.25852],[-8.41479,41.25814],[-8.41577,41.25768],[-8.41701,41.25821],[-8.41918,41.25802],[-8.42226,41.25614],[-8.42287,41.25514],[-8.42366,41.25482],[-8.42592,41.2549],[-8.42716,41.2545],[-8.43036,41.25494],[-8.43162,41.25436],[-8.43278,41.25421],[-8.4372,41.25127],[-8.43964,41.24901],[-8.44107,41.24565],[-8.45013,41.2449],[-8.45055,41.24652]]]}},{"type":"Feature","properties":{"kind":"district","part":"solo"},"geometry":{"type":"MultiLineString","coordinates":[[[-8.61447,41.02234],[-8.61595,41.02116],[-8.6169,41.02067],[-8.61835,41.02043],[-8.61827,41.02018],[-8.62283,41.01982],[-8.62299,41.01867],[-8.62591,41.01925],[-8.63102,41.01839],[-8.63234,41.01674],[-8.63475,41.0166],[-8.63489,41.01579],[-8.63542,41.01525],[-8.63733,41.01512],[-8.63907,41.01566],[-8.64417,41.01593]],[[-8.14087,41.37265],[-8.14271,41.37159],[-8.14293,41.36858],[-8.14598,41.36472],[-8.14645,41.3603],[-8.14466,41.35956],[-8.14084,41.36081],[-8.13877,41.36038],[-8.13778,41.36049],[-8.13627,41.35926],[-8.1351,41.35718],[-8.13313,41.35664],[-8.13076,41.35532],[-8.13154,41.35228],[-8.13013,41.34857],[-8.12832,41.34818],[-8.12266,41.34587],[-8.12048,41.34577],[-8.12091,41.34487],[-8.12012,41.34423],[-8.1205,41.3438],[-8.11967,41.34316],[-8.11552,41.34638],[-8.11044,41.34254],[-8.10909,41.3408],[-8.10626,41.33926],[-8.10266,41.33826],[-8.09508,41.3381],[-8.09481,41.33645],[-8.09353,41.33707],[-8.09236,41.33685],[-8.09317,41.33627],[-8.09365,41.33522],[-8.09187,41.33579],[-8.0906,41.33557],[-8.09,41.33355],[-8.08871,41.33309],[-8.08823,41.33208],[-8.08987,41.33064],[-8.08979,41.33012],[-8.0889,41.32976],[-8.08813,41.33],[-8.08651,41.32935],[-8.08217,41.33028],[-8.07941,41.33153],[-8.07799,41.33353],[-8.07772,41.33451],[-8.07821,41.33557],[-8.07712,41.33718],[-8.07711,41.33812],[-8.0742,41.34023],[-8.07265,41.3409],[-8.07004,41.34328],[-8.06537,41.34328],[-8.06522,41.34272],[-8.0656,41.34179],[-8.06508,41.34094],[-8.06549,41.34031],[-8.06526,41.33962],[-8.06563,41.3388],[-8.06381,41.33931],[-8.06328,41.33917],[-8.05768,41.33312],[-8.05314,41.33264],[-8.04899,41.3318],[-8.04865,41.32943],[-8.04759,41.32794],[-8.04074,41.32178],[-8.03817,41.31999],[-8.0358,41.31883],[-8.03097,41.31889],[-8.02731,41.31951],[-8.02277,41.32203],[-8.02023,41.32414],[-8.02007,41.325],[-8.02276,41.32745],[-8.02296,41.32793],[-8.02234,41.32881],[-8.0175,41.32973],[-8.01533,41.32973],[-8.01282,41.33019],[-8.00867,41.33201],[-8.00797,41.33316],[-8.0089,41.33478],[-8.00887,41.33544],[-8.00612,41.33772],[-8.00486,41.34089],[-8.00379,41.34196],[-8.00097,41.3422],[-7.9993,41.34276],[-7.99706,41.34279],[-7.99377,41.34427],[-7.99139,41.34596],[-7.98957,41.34661],[-7.98872,41.34723],[-7.9882,41.34893],[-7.98915,41.35116],[-7.98786,41.35379],[-7.98762,41.35624],[-7.98332,41.35875],[-7.98174,41.36038],[-7.9809,41.36183],[-7.98072,41.36316],[-7.98107,41.36637],[-7.97998,41.36839],[-7.97753,41.37027],[-7.97613,41.37315],[-7.97593,41.37438],[-7.97484,41.375]],[[-7.91257,41.12005],[-7.92126,41.11996],[-7.9307,41.11814],[-7.93311,41.11871],[-7.94028,41.1216],[-7.94421,41.12255],[-7.95165,41.1227],[-7.95403,41.12147],[-7.95959,41.11525],[-7.96209,41.11364],[-7.96355,41.11358],[-7.96522,41.114],[-7.96806,41.11566],[-7.96917,41.11582],[-7.97278,41.11483],[-7.97849,41.11161],[-7.99033,41.10971],[-7.99549,41.10691],[-7.9987,41.10566],[-8.00436,41.10496],[-8.01416,41.10432],[-8.01586,41.10354],[-8.01846,41.10113],[-8.02191,41.0986],[-8.02588,41.09682],[-8.03041,41.09677],[-8.0365,41.09567],[-8.04419,41.09292],[-8.04603,41.09181],[-8.04913,41.09054],[-8.05276,41.08968],[-8.05664,41.08958],[-8.05928,41.09003],[-8.06495,41.09203],[-8.06823,41.09281],[-8.07739,41.0924],[-8.08273,41.09174],[-8.08751,41.09692],[-8.09026,41.09883],[-8.0942,41.10072],[-8.0959,41.10082],[-8.09843,41.10056],[-8.10344,41.09916],[-8.11298,41.09495],[-8.11365,41.0943],[-8.11587,41.09015],[-8.11792,41.08871],[-8.12272,41.08843],[-8.12727,41.08764],[-8.12945,41.08678],[-8.13315,41.08439],[-8.13551,41.08381],[-8.13693,41.08374],[-8.14222,41.08443],[-8.14689,41.08416],[-8.1513,41.08529],[-8.15697,41.08829],[-8.15923,41.08915],[-8.16089,41.08944],[-8.16888,41.08808],[-8.17285,41.08816],[-8.18546,41.09261],[-8.18959,41.09346],[-8.19906,41.09421],[-8.20455,41.09409],[-8.20864,41.09304],[-8.2117,41.09122],[-8.21303,41.08969],[-8.21481,41.08649],[-8.21724,41.0833],[-8.21882,41.08157],[-8.22175,41.07935],[-8.22439,41.07848],[-8.22984,41.0792],[-8.2328,41.07902],[-8.23415,41.07858],[-8.23643,41.07741],[-8.23948,41.07339],[-8.2411,41.07192],[-8.24299,41.07061],[-8.24805,41.06887],[-8.25213,41.06876],[-8.25848,41.07032],[-8.26011,41.07024],[-8.26179,41.06919],[-8.26274,41.06817],[-8.26399,41.06586],[-8.2654,41.0648],[-8.26862,41.06418],[-8.27328,41.06511],[-8.2782,41.06658],[-8.27993,41.0674],[-8.28163,41.06889],[-8.28273,41.0704],[-8.28446,41.07582],[-8.28654,41.07842],[-8.28848,41.07957],[-8.28999,41.08002],[-8.29464,41.07999],[-8.29622,41.079],[-8.29829,41.07697],[-8.30071,41.06972],[-8.30374,41.06674],[-8.30997,41.06261],[-8.31341,41.05897],[-8.31471,41.05839],[-8.3242,41.05854],[-8.32579,41.05837],[-8.32701,41.05791],[-8.3336,41.05331],[-8.33669,41.0492],[-8.34085,41.04456],[-8.3428,41.04289],[-8.34729,41.04061],[-8.35216,41.0401],[-8.35637,41.04119],[-8.35839,41.04216],[-8.36427,41.04751],[-8.3685,41.05015],[-8.37052,41.05071],[-8.37453,41.05024]],[[-8.38479,41.00337],[-8.38922,41.00138],[-8.39042,41.00209],[-8.38885,41.00453],[-8.38944,41.00512],[-8.39011,41.00509],[-8.39011,41.00542],[-8.39356,41.00821],[-8.39436,41.01037],[-8.39469,41.01004],[-8.39677,41.01245],[-8.40108,41.01213],[-8.40321,41.01318],[-8.40829,41.01333],[-8.41522,41.01507],[-8.41901,41.01843],[-8.41989,41.01856],[-8.42093,41.0192],[-8.42209,41.01906],[-8.42351,41.02028],[-8.42667,41.02072],[-8.42999,41.02246],[-8.4288,41.02308],[-8.42866,41.02348],[-8.42947,41.02399],[-8.42977,41.02492],[-8.43123,41.02608],[-8.43301,41.02926],[-8.43282,41.02986],[-8.43181,41.03067],[-8.43073,41.03102],[-8.43113,41.0316],[-8.43075,41.03221],[-8.42967,41.03265],[-8.42922,41.03316],[-8.42838,41.03659],[-8.43045,41.0371],[-8.43202,41.03789],[-8.43924,41.04578],[-8.44306,41.04943],[-8.44654,41.05224],[-8.44874,41.05346],[-8.45156,41.04999],[-8.45192,41.04905],[-8.45137,41.04834],[-8.45144,41.0474],[-8.45227,41.04677],[-8.45271,41.04583],[-8.45542,41.04497],[-8.45567,41.04381],[-8.45678,41.04238],[-8.46029,41.04494],[-8.45996,41.04515],[-8.46606,41.04828],[-8.47385,41.05113],[-8.47718,41.0517],[-8.47688,41.05289],[-8.48154,41.0518],[-8.48315,41.05283],[-8.48622,41.0527],[-8.48955,41.04917],[-8.49,41.04685],[-8.49164,41.0445],[-8.4906,41.04303],[-8.49258,41.0396],[-8.48498,41.03716],[-8.48401,41.03673],[-8.48403,41.03633],[-8.48279,41.03641],[-8.48198,41.03576],[-8.48168,41.03489],[-8.48059,41.03475],[-8.47972,41.03512],[-8.47857,41.03414],[-8.4757,41.03404],[-8.47615,41.03291],[-8.47588,41.03151],[-8.47505,41.03201],[-8.47273,41.03188],[-8.47177,41.03116],[-8.47088,41.0324],[-8.4696,41.03229],[-8.46662,41.03025],[-8.46953,41.03001],[-8.47046,41.02977],[-8.47039,41.02943],[-8.47075,41.02967],[-8.47317,41.02905],[-8.47418,41.0285],[-8.47502,41.02849],[-8.47557,41.02817],[-8.4759,41.02682],[-8.47748,41.0248],[-8.48804,41.02379],[-8.49193,41.02215],[-8.48917,41.0134],[-8.49093,41.0117],[-8.49514,41.01079],[-8.49766,41.0117],[-8.50083,41.01039],[-8.50082,41.00961],[-8.50118,41.00941],[-8.50448,41.00952],[-8.50564,41.0093],[-8.51124,41.01344],[-8.51292,41.01378],[-8.51524,41.01539],[-8.51526,41.01593],[-8.51852,41.02101],[-8.52033,41.02539],[-8.52195,41.02665],[-8.52378,41.02882],[-8.52538,41.03206],[-8.52778,41.0358],[-8.52845,41.04051],[-8.53206,41.03915],[-8.53326,41.03816],[-8.53488,41.03749],[-8.53618,41.03611],[-8.54049,41.03632],[-8.54336,41.03526],[-8.5456,41.0337],[-8.54786,41.03095],[-8.54943,41.03082],[-8.55335,41.02744],[-8.55497,41.0265],[-8.55406,41.02486],[-8.55407,41.02307],[-8.55531,41.02074],[-8.55751,41.01835],[-8.55766,41.01747],[-8.55719,41.01556],[-8.55933,41.0155],[-8.56365,41.01443],[-8.56491,41.01491],[-8.56608,41.01381],[-8.56853,41.01392],[-8.5689,41.01417],[-8.5695,41.01396],[-8.57254,41.01406],[-8.5735,41.01353],[-8.58359,41.01395],[-8.58882,41.0137],[-8.59362,41.01411],[-8.59495,41.01456],[-8.59601,41.01543],[-8.59709,41.0168],[-8.59859,41.01794],[-8.59905,41.01979],[-8.60207,41.02196],[-8.60586,41.02577],[-8.61394,41.02196],[-8.61412,41.02236],[-8.61447,41.02234]]]}},{"type":"Feature","properties":{"kind":"district","part":"inset"},"geometry":{"type":"MultiLineString","coordinates":[[[-8.31896,41.34799],[-8.31763,41.34758]],[[-8.37856,41.05347],[-8.38097,41.05318]]]}}]}